{"type":"Feature","properties":{"MUN":"HACKENSACK CITY","COUNTY":"BERGEN","MUN_LABEL":"Hackensack City","MUN_TYPE":"City","NAME":"Hackensack","GNIS_NAME":"City of Hackensack"},"geometry":{"type":"Polygon","coordinates":[[[-74.0345475,40.8843005],[-74.034863,40.8838521],[-74.0356804,40.8828524],[-74.0362041,40.8822534],[-74.0364774,40.88193],[-74.0368244,40.8816182],[-74.0371516,40.8813247],[-74.0373848,40.8811337],[-74.0375485,40.880988],[-74.0377817,40.8807879],[-74.0383006,40.8804334],[-74.038996,40.8800294],[-74.0393225,40.8798387],[-74.0394558,40.8797386],[-74.039571,40.8796248],[-74.039615,40.8795787],[-74.0396478,40.8795163],[-74.0396594,40.8794626],[-74.0396637,40.8793805],[-74.039676,40.8792277],[-74.0397012,40.8788173],[-74.0396905,40.8787437],[-74.0396687,40.8786502],[-74.0396435,40.8785341],[-74.0396256,40.8784236],[-74.039593,40.8782819],[-74.0395468,40.8781037],[-74.0394595,40.8779049],[-74.0394004,40.8778226],[-74.0393449,40.8777544],[-74.0392171,40.8776713],[-74.0390736,40.8776231],[-74.0388987,40.877563],[-74.038653,40.8774969],[-74.0381597,40.8773845],[-74.0376718,40.877292],[-74.0369771,40.8771703],[-74.0364333,40.8770804],[-74.0360645,40.8770166],[-74.0357554,40.8769616],[-74.0355991,40.8769128],[-74.0355231,40.8768814],[-74.0354449,40.8768302],[-74.0352671,40.8766596],[-74.035108,40.8764721],[-74.0349829,40.876231],[-74.0348975,40.8759987],[-74.0348538,40.8758109],[-74.0348391,40.8756232],[-74.0348568,40.8753869],[-74.0348803,40.8752359],[-74.034945,40.8750192],[-74.034947,40.8750125],[-74.035135,40.8744113],[-74.0353178,40.8738989],[-74.0356901,40.873018],[-74.0357843,40.8727268],[-74.0358267,40.8725287],[-74.0359042,40.8720703],[-74.0359316,40.8717683],[-74.035933,40.871698],[-74.0359416,40.8712702],[-74.0359063,40.8705642],[-74.0358854,40.8700996],[-74.0358503,40.8692308],[-74.0358476,40.8691643],[-74.0358037,40.8684962],[-74.0356981,40.8676912],[-74.0355453,40.8668381],[-74.035458,40.8665232],[-74.0353473,40.8662408],[-74.0352293,40.8660441],[-74.0350279,40.8657574],[-74.0348179,40.865483],[-74.0339081,40.8644535],[-74.0330848,40.8636254],[-74.0329587,40.863468],[-74.0328518,40.8632635],[-74.0327805,40.8630921],[-74.0327335,40.8629085],[-74.0326948,40.8626944],[-74.0326964,40.8624561],[-74.0326988,40.8621261],[-74.032742,40.8616984],[-74.0328567,40.8610175],[-74.0328749,40.8606917],[-74.0328711,40.8604745],[-74.0327931,40.8598868],[-74.0327213,40.8595485],[-74.0326445,40.859162],[-74.0325273,40.8588759],[-74.0323859,40.858642],[-74.0323849,40.8586407],[-74.0382695,40.8588893],[-74.0382763,40.8588988],[-74.0486021,40.8731659],[-74.0488549,40.8731434],[-74.0491728,40.8731146],[-74.0494904,40.8730845],[-74.0496037,40.8730735],[-74.0498551,40.8730484],[-74.0501063,40.8730225],[-74.0503574,40.8729959],[-74.0504239,40.8729887],[-74.0505223,40.8729755],[-74.0508017,40.8729378],[-74.0508329,40.8728599],[-74.0547749,40.8735947],[-74.05567,40.8739757],[-74.0583354,40.8705001],[-74.0597479,40.8686582],[-74.0597123,40.8687172],[-74.0596787,40.8687768],[-74.0596471,40.8688371],[-74.0596175,40.8688979],[-74.05959,40.8689593],[-74.0595646,40.8690212],[-74.0595413,40.8690836],[-74.05952,40.8691464],[-74.0595009,40.8692096],[-74.0594838,40.8692731],[-74.059469,40.8693369],[-74.0594562,40.869401],[-74.0594456,40.8694653],[-74.0594372,40.8695298],[-74.0594309,40.8695945],[-74.0594269,40.8696592],[-74.0594249,40.869724],[-74.0594252,40.8697889],[-74.0594276,40.8698536],[-74.0594322,40.8699184],[-74.059439,40.869983],[-74.0594479,40.8700474],[-74.059459,40.8701117],[-74.0594722,40.8701758],[-74.0594876,40.8702395],[-74.0595051,40.870303],[-74.0595248,40.8703661],[-74.0595465,40.8704288],[-74.0595704,40.870491],[-74.0595963,40.8705528],[-74.0596243,40.8706141],[-74.0596543,40.8706748],[-74.0596863,40.8707349],[-74.0597204,40.8707944],[-74.0597565,40.8708532],[-74.0597945,40.8709113],[-74.0598344,40.8709686],[-74.0598762,40.8710252],[-74.05992,40.8710809],[-74.0599656,40.8711358],[-74.060013,40.8711898],[-74.0600622,40.8712429],[-74.0601131,40.871295],[-74.0601658,40.8713461],[-74.0602202,40.8713962],[-74.0602763,40.8714452],[-74.060334,40.8714932],[-74.0603933,40.87154],[-74.0604541,40.8715857],[-74.0605164,40.8716301],[-74.0605802,40.8716734],[-74.0606455,40.8717155],[-74.0607121,40.8717562],[-74.0683067,40.8760573],[-74.0654711,40.8826122],[-74.0645681,40.8870906],[-74.0644699,40.8871964],[-74.0643742,40.8872818],[-74.064286,40.8873795],[-74.0641682,40.8874919],[-74.0641381,40.8875369],[-74.0640803,40.8875834],[-74.0640463,40.887633],[-74.0640042,40.8876855],[-74.0639544,40.887726],[-74.0638404,40.8878384],[-74.0637635,40.8879102],[-74.0637015,40.8879882],[-74.0636097,40.8880676],[-74.0635657,40.8881172],[-74.0634559,40.8882146],[-74.0633399,40.8883241],[-74.0632102,40.888456],[-74.0629792,40.888678],[-74.0629763,40.8886809],[-74.0629731,40.8886838],[-74.0629699,40.8886866],[-74.0629665,40.8886895],[-74.0629631,40.8886922],[-74.0629597,40.8886949],[-74.0629563,40.8886975],[-74.0629526,40.8887002],[-74.062949,40.8887028],[-74.0629454,40.8887052],[-74.0629417,40.8887077],[-74.0629379,40.8887101],[-74.062934,40.8887125],[-74.0629302,40.8887147],[-74.0629263,40.8887169],[-74.0629222,40.8887192],[-74.0629184,40.8887214],[-74.0629143,40.8887234],[-74.06291,40.8887255],[-74.0629066,40.8887272],[-74.0628957,40.8887324],[-74.0628853,40.8887379],[-74.0628748,40.8887435],[-74.0628646,40.8887493],[-74.0628544,40.8887551],[-74.0628433,40.8887617],[-74.062839,40.8887643],[-74.0628344,40.8887667],[-74.0628299,40.8887689],[-74.0628254,40.8887711],[-74.0628206,40.8887732],[-74.0628158,40.888775],[-74.0628109,40.8887767],[-74.0628059,40.8887784],[-74.0628009,40.8887799],[-74.0627968,40.888781],[-74.0627911,40.8887826],[-74.0627855,40.8887843],[-74.0627798,40.888786],[-74.0627742,40.8887879],[-74.0627685,40.8887898],[-74.0627631,40.8887918],[-74.0627576,40.8887938],[-74.0627522,40.8887961],[-74.0627467,40.8887983],[-74.0627413,40.8888005],[-74.0627361,40.8888029],[-74.0627309,40.8888052],[-74.0627256,40.8888076],[-74.0627207,40.8888102],[-74.0627154,40.8888129],[-74.0627104,40.8888156],[-74.0627057,40.8888183],[-74.0627007,40.8888211],[-74.0626959,40.888824],[-74.0626912,40.8888269],[-74.0626866,40.8888299],[-74.0626821,40.888833],[-74.0626775,40.8888361],[-74.062673,40.8888393],[-74.0626687,40.8888426],[-74.0626644,40.8888458],[-74.06266,40.8888492],[-74.0626559,40.8888526],[-74.0626519,40.8888561],[-74.062648,40.8888595],[-74.0626439,40.8888631],[-74.0626403,40.8888668],[-74.0626364,40.8888704],[-74.0626327,40.8888742],[-74.0626291,40.8888779],[-74.0625802,40.8889282],[-74.0625091,40.8890051],[-74.0624459,40.8891056],[-74.0624096,40.8891557],[-74.0623274,40.889246],[-74.0622776,40.8893148],[-74.0621355,40.889576],[-74.0620892,40.8896433],[-74.0620756,40.8896892],[-74.062043,40.8897508],[-74.0620314,40.8897738],[-74.061995,40.8898356],[-74.0619526,40.8899188],[-74.061926,40.8899446],[-74.0618453,40.8901182],[-74.0617628,40.8902588],[-74.0617354,40.8902971],[-74.0616857,40.8903504],[-74.0616823,40.8903544],[-74.0616791,40.8903583],[-74.0616764,40.8903624],[-74.0616734,40.8903665],[-74.0616709,40.8903706],[-74.0616686,40.8903749],[-74.0616663,40.8903794],[-74.0616643,40.8903836],[-74.0616627,40.8903881],[-74.0616611,40.8903925],[-74.0616597,40.890397],[-74.0616585,40.8904016],[-74.0616576,40.8904063],[-74.0616566,40.8904107],[-74.0616562,40.8904153],[-74.0616559,40.89042],[-74.0616559,40.8904246],[-74.0616558,40.8904292],[-74.0616563,40.8904339],[-74.0616567,40.8904385],[-74.0616576,40.8904431],[-74.0616584,40.8904478],[-74.0616593,40.8904516],[-74.06166,40.8904559],[-74.0616606,40.89046],[-74.0616608,40.8904643],[-74.061661,40.8904685],[-74.061661,40.8904728],[-74.0616607,40.8904771],[-74.0616602,40.8904814],[-74.0616595,40.8904857],[-74.0616586,40.8904898],[-74.0616577,40.8904941],[-74.0616563,40.8904982],[-74.0616549,40.8905023],[-74.0616533,40.8905064],[-74.0616515,40.8905105],[-74.0616494,40.8905145],[-74.0616473,40.8905184],[-74.061645,40.8905224],[-74.0616425,40.8905261],[-74.0616398,40.8905299],[-74.0616368,40.8905336],[-74.0616332,40.8905376],[-74.0616298,40.8905422],[-74.0616263,40.8905468],[-74.0616232,40.8905514],[-74.0616204,40.8905562],[-74.0616177,40.890561],[-74.0616151,40.890566],[-74.0616129,40.890571],[-74.061611,40.8905761],[-74.0616092,40.8905812],[-74.0616076,40.8905864],[-74.0616064,40.8905915],[-74.0616052,40.8905967],[-74.0616045,40.890602],[-74.0616038,40.8906071],[-74.0616035,40.8906124],[-74.0616035,40.8906178],[-74.0616035,40.8906231],[-74.0616039,40.8906282],[-74.0616043,40.890631],[-74.061605,40.8906361],[-74.0616061,40.8906413],[-74.0616065,40.890644],[-74.0616078,40.8906492],[-74.0616096,40.8906543],[-74.0616114,40.8906593],[-74.0616134,40.8906645],[-74.0616156,40.8906694],[-74.0616183,40.8906743],[-74.061621,40.8906791],[-74.0616239,40.8906839],[-74.061627,40.8906885],[-74.0616288,40.8906909],[-74.0616322,40.8906954],[-74.061636,40.8906999],[-74.0616387,40.8907028],[-74.0616413,40.8907061],[-74.0616438,40.8907095],[-74.0616461,40.8907131],[-74.0616481,40.8907167],[-74.0616498,40.8907204],[-74.0616514,40.8907241],[-74.0616527,40.8907279],[-74.0616538,40.8907319],[-74.0616545,40.8907356],[-74.0616549,40.8907423],[-74.0616551,40.8907475],[-74.0616546,40.8907514],[-74.0616541,40.8907554],[-74.0616532,40.8907591],[-74.0616521,40.8907631],[-74.0616495,40.8907692],[-74.0616477,40.890773],[-74.0616456,40.8907766],[-74.0616431,40.89078],[-74.0616406,40.8907835],[-74.0616379,40.8907869],[-74.0616347,40.8907899],[-74.0616315,40.890793],[-74.0616281,40.8907959],[-74.0616245,40.8907988],[-74.0616206,40.8908014],[-74.0616165,40.8908039],[-74.0616124,40.8908062],[-74.0616079,40.8908084],[-74.0616036,40.8908104],[-74.0615988,40.8908121],[-74.0615943,40.8908133],[-74.06159,40.8908143],[-74.0615857,40.8908153],[-74.0615814,40.8908163],[-74.0615773,40.8908175],[-74.0615732,40.8908187],[-74.0615689,40.8908199],[-74.0615649,40.8908213],[-74.0615608,40.8908226],[-74.0615567,40.890824],[-74.0615528,40.8908255],[-74.0615488,40.890827],[-74.0615449,40.8908286],[-74.0615411,40.8908303],[-74.0615372,40.8908318],[-74.0615334,40.8908335],[-74.0615295,40.8908354],[-74.0615256,40.8908372],[-74.061522,40.8908391],[-74.0615184,40.890841],[-74.0615148,40.8908428],[-74.0615111,40.8908449],[-74.0615077,40.8908469],[-74.0615043,40.8908492],[-74.0615007,40.8908512],[-74.0614975,40.8908534],[-74.0614941,40.8908556],[-74.0614909,40.890858],[-74.0614875,40.8908602],[-74.0614843,40.8908626],[-74.0614814,40.890865],[-74.0614782,40.8908676],[-74.0614752,40.89087],[-74.0614723,40.8908725],[-74.0614695,40.8908751],[-74.0614666,40.8908777],[-74.0614639,40.8908804],[-74.0614611,40.890883],[-74.0614586,40.8908857],[-74.0614559,40.8908884],[-74.0614534,40.8908913],[-74.0614511,40.8908941],[-74.0614486,40.890897],[-74.0614463,40.8908999],[-74.061444,40.8909028],[-74.061442,40.8909057],[-74.0614397,40.8909086],[-74.0614377,40.8909117],[-74.0614358,40.8909146],[-74.0614338,40.8909177],[-74.0614319,40.8909208],[-74.0614303,40.8909238],[-74.0614285,40.8909271],[-74.0614269,40.8909302],[-74.0614253,40.8909333],[-74.0614239,40.8909365],[-74.0614226,40.8909398],[-74.0614212,40.8909429],[-74.06142,40.8909461],[-74.0614189,40.8909494],[-74.0614177,40.8909526],[-74.0610012,40.8912358],[-74.0609482,40.8912224],[-74.0609102,40.8911902],[-74.060876,40.8911659],[-74.0608454,40.8911078],[-74.0608438,40.891105],[-74.0608418,40.8911024],[-74.0608396,40.8911],[-74.0608369,40.8910978],[-74.0608342,40.8910957],[-74.060831,40.8910938],[-74.0608279,40.8910921],[-74.0608245,40.8910907],[-74.0608209,40.8910895],[-74.0608171,40.8910884],[-74.0608114,40.8910874],[-74.0608058,40.8910863],[-74.0608001,40.8910855],[-74.0607945,40.8910848],[-74.0607888,40.891084],[-74.0607832,40.8910837],[-74.0607773,40.8910833],[-74.0607716,40.8910833],[-74.0607658,40.8910833],[-74.0607601,40.8910834],[-74.0607542,40.8910837],[-74.0607486,40.8910842],[-74.0607429,40.8910849],[-74.0607373,40.8910856],[-74.0607316,40.8910866],[-74.060726,40.8910876],[-74.0607205,40.8910889],[-74.0607149,40.8910903],[-74.0607096,40.8910918],[-74.0607042,40.8910933],[-74.060699,40.8910952],[-74.0606938,40.8910971],[-74.0606888,40.8910989],[-74.0606845,40.891101],[-74.06068,40.8911028],[-74.0606757,40.8911049],[-74.0606711,40.8911069],[-74.0606668,40.8911091],[-74.0606627,40.8911114],[-74.0606584,40.8911136],[-74.0606543,40.891116],[-74.0606502,40.8911182],[-74.0606462,40.8911207],[-74.0606423,40.8911231],[-74.0606382,40.8911257],[-74.0606344,40.8911282],[-74.0606305,40.8911308],[-74.0606269,40.8911335],[-74.0606232,40.8911363],[-74.0606196,40.891139],[-74.0606159,40.8911419],[-74.0606125,40.8911448],[-74.0606091,40.8911477],[-74.0606057,40.8911506],[-74.0606025,40.8911535],[-74.0605991,40.8911566],[-74.0605962,40.8911597],[-74.060593,40.8911629],[-74.060583,40.8911732],[-74.0605645,40.8911918],[-74.0605454,40.8912101],[-74.0605259,40.8912282],[-74.0605061,40.8912459],[-74.0604856,40.8912635],[-74.0604649,40.8912808],[-74.0604438,40.8912977],[-74.0604224,40.8913144],[-74.0604006,40.8913308],[-74.0603783,40.891347],[-74.0603556,40.8913629],[-74.0603327,40.8913784],[-74.0603093,40.8913936],[-74.0602995,40.8914001],[-74.0602889,40.8914072],[-74.0602782,40.8914147],[-74.0602678,40.8914223],[-74.0602575,40.8914298],[-74.0602475,40.8914376],[-74.0602378,40.8914455],[-74.060228,40.8914535],[-74.0602187,40.8914617],[-74.0602093,40.8914701],[-74.0602002,40.8914784],[-74.0601914,40.891487],[-74.0601825,40.8914957],[-74.0601741,40.8915044],[-74.0601656,40.8915133],[-74.0601577,40.8915222],[-74.0601497,40.8915313],[-74.0601422,40.8915405],[-74.0601347,40.8915499],[-74.0601274,40.8915591],[-74.0601203,40.8915687],[-74.0601134,40.8915783],[-74.0601064,40.8915884],[-74.0601039,40.891592],[-74.0601013,40.8915956],[-74.0600988,40.8915992],[-74.0600961,40.8916026],[-74.0600931,40.891606],[-74.0600904,40.8916094],[-74.0600874,40.8916129],[-74.0600845,40.8916163],[-74.0600813,40.8916195],[-74.0600781,40.8916228],[-74.0600749,40.891626],[-74.0600715,40.8916293],[-74.0600681,40.8916323],[-74.0600647,40.8916354],[-74.060061,40.8916385],[-74.0600574,40.8916414],[-74.0600538,40.8916443],[-74.0600501,40.8916472],[-74.0600463,40.8916501],[-74.0600424,40.8916528],[-74.0600383,40.8916556],[-74.0600345,40.8916583],[-74.0600304,40.891661],[-74.0600263,40.8916636],[-74.060022,40.8916661],[-74.0600179,40.8916685],[-74.0600109,40.8916724],[-74.0600063,40.891675],[-74.0600022,40.8916777],[-74.0599981,40.8916806],[-74.0599941,40.8916835],[-74.0599902,40.8916866],[-74.0599866,40.8916897],[-74.0599829,40.8916929],[-74.0599795,40.8916963],[-74.0599763,40.8916998],[-74.0599731,40.8917032],[-74.0599702,40.8917068],[-74.0599674,40.8917105],[-74.0599649,40.8917141],[-74.0599624,40.8917181],[-74.0599603,40.8917218],[-74.0599583,40.8917258],[-74.0599558,40.8917299],[-74.0599533,40.891734],[-74.0599505,40.8917381],[-74.0599478,40.8917422],[-74.0599448,40.8917463],[-74.0599418,40.8917502],[-74.0599389,40.8917543],[-74.0599357,40.8917583],[-74.0599325,40.891762],[-74.0599293,40.891766],[-74.0599259,40.8917697],[-74.0599222,40.8917735],[-74.0599188,40.8917773],[-74.0599131,40.8917825],[-74.0599102,40.8917858],[-74.059907,40.891789],[-74.059904,40.8917923],[-74.0599011,40.8917957],[-74.0598983,40.891799],[-74.0598956,40.8918024],[-74.0598929,40.8918058],[-74.0598904,40.8918092],[-74.0598878,40.8918128],[-74.0598853,40.8918162],[-74.0598831,40.8918198],[-74.0598808,40.8918234],[-74.0598787,40.891827],[-74.0598764,40.8918308],[-74.0598435,40.8918917],[-74.0597954,40.8919808],[-74.0597763,40.8920006],[-74.0597637,40.8920186],[-74.0597619,40.8920213],[-74.0597585,40.8920257],[-74.0597551,40.8920298],[-74.0597512,40.8920341],[-74.0597473,40.8920381],[-74.0597432,40.892042],[-74.0597369,40.8920478],[-74.0597323,40.8920514],[-74.0597275,40.892055],[-74.0597228,40.8920584],[-74.0597178,40.8920616],[-74.0597098,40.8920664],[-74.0597048,40.8920689],[-74.0597008,40.8920712],[-74.0596967,40.8920735],[-74.0596928,40.8920759],[-74.0596889,40.8920785],[-74.0596851,40.8920809],[-74.0596812,40.8920834],[-74.0596776,40.892086],[-74.059674,40.8920887],[-74.0596703,40.8920915],[-74.0596669,40.8920942],[-74.0596635,40.8920969],[-74.0596601,40.8920998],[-74.0596567,40.8921027],[-74.0596535,40.8921056],[-74.0596503,40.8921085],[-74.0596471,40.8921116],[-74.0596442,40.8921145],[-74.0596412,40.8921178],[-74.0596383,40.8921208],[-74.0596355,40.8921239],[-74.0596326,40.8921272],[-74.0596301,40.8921304],[-74.0596273,40.8921337],[-74.0596248,40.8921369],[-74.0596223,40.8921403],[-74.05962,40.8921438],[-74.0596177,40.8921472],[-74.0595545,40.892232],[-74.0595523,40.8922353],[-74.05955,40.8922385],[-74.0595479,40.8922418],[-74.0595459,40.8922452],[-74.0595438,40.8922485],[-74.0595418,40.8922519],[-74.0595399,40.8922553],[-74.0595381,40.8922587],[-74.0595365,40.8922622],[-74.0595349,40.8922658],[-74.0595333,40.8922692],[-74.0595319,40.8922726],[-74.0595305,40.8922762],[-74.0595291,40.8922798],[-74.059528,40.8922834],[-74.0595268,40.892287],[-74.0595259,40.8922906],[-74.059525,40.8922942],[-74.059524,40.8922978],[-74.0595231,40.8923014],[-74.0595224,40.892305],[-74.0595219,40.8923088],[-74.0595212,40.8923124],[-74.0595208,40.892316],[-74.0595205,40.8923197],[-74.0595203,40.8923233],[-74.05952,40.8923271],[-74.0595198,40.8923307],[-74.0595197,40.8923345],[-74.0595199,40.8923381],[-74.0595199,40.8923417],[-74.0595201,40.8923455],[-74.0595205,40.8923491],[-74.059521,40.8923529],[-74.0595214,40.8923565],[-74.059522,40.8923601],[-74.0595225,40.8923638],[-74.0595234,40.8923674],[-74.059524,40.8923711],[-74.0595249,40.8923747],[-74.059526,40.8923783],[-74.0595442,40.8924694],[-74.0595446,40.8924725],[-74.059545,40.8924754],[-74.059545,40.8924785],[-74.059545,40.8924816],[-74.0595445,40.8924845],[-74.059544,40.8924876],[-74.0595431,40.8924905],[-74.0595422,40.8924936],[-74.059541,40.8924965],[-74.0595397,40.8924993],[-74.0595381,40.8925022],[-74.0595365,40.8925049],[-74.0595344,40.8925075],[-74.0595324,40.89251],[-74.0595301,40.8925126],[-74.0595276,40.892515],[-74.059404,40.8926358],[-74.0594026,40.8926509],[-74.0593889,40.8926718],[-74.059387,40.8926745],[-74.0593854,40.8926773],[-74.0593838,40.89268],[-74.0593822,40.8926827],[-74.0593809,40.8926855],[-74.0593795,40.8926882],[-74.0593781,40.8926911],[-74.059377,40.8926939],[-74.0593758,40.8926968],[-74.0593747,40.8926997],[-74.0593735,40.8927026],[-74.0593726,40.8927055],[-74.0593717,40.8927084],[-74.0593707,40.8927114],[-74.05937,40.8927143],[-74.0593691,40.8927172],[-74.0593686,40.8927201],[-74.0593679,40.892723],[-74.0593675,40.8927261],[-74.059367,40.892729],[-74.0593665,40.8927321],[-74.0593663,40.892735],[-74.059366,40.8927379],[-74.0593658,40.892741],[-74.0593648,40.8927556],[-74.0593636,40.8927707],[-74.0593633,40.8927734],[-74.0593616,40.892789],[-74.0593611,40.892793],[-74.0593609,40.8927969],[-74.0593606,40.8928009],[-74.0593606,40.8928048],[-74.0593604,40.8928088],[-74.0593606,40.8928125],[-74.0593605,40.8928165],[-74.0593607,40.8928204],[-74.0593612,40.8928244],[-74.0593616,40.8928283],[-74.059362,40.8928323],[-74.0593624,40.892836],[-74.0593633,40.89284],[-74.059364,40.8928439],[-74.0593649,40.8928477],[-74.0593657,40.8928517],[-74.0593668,40.8928554],[-74.0593679,40.8928592],[-74.059369,40.8928632],[-74.0593704,40.892867],[-74.0593717,40.8928707],[-74.059373,40.8928745],[-74.0593746,40.8928783],[-74.0593764,40.8928819],[-74.0593779,40.8928857],[-74.0593797,40.8928893],[-74.0593813,40.8928924],[-74.0593831,40.8928963],[-74.0593846,40.8929005],[-74.059386,40.8929044],[-74.0593871,40.8929085],[-74.0593879,40.8929128],[-74.0593888,40.892917],[-74.0593895,40.8929211],[-74.0593899,40.8929254],[-74.0593901,40.8929295],[-74.0593901,40.8929338],[-74.05939,40.8929379],[-74.0593895,40.8929422],[-74.0593891,40.8929463],[-74.0593884,40.8929506],[-74.0593874,40.8929547],[-74.0593863,40.8929588],[-74.0593849,40.8929629],[-74.0593833,40.8929669],[-74.0593817,40.892971],[-74.0593674,40.8930018],[-74.0593509,40.8930362],[-74.0593335,40.8930705],[-74.0593152,40.8931044],[-74.0592962,40.8931382],[-74.0592766,40.8931716],[-74.059256,40.8932048],[-74.0592348,40.8932379],[-74.0592121,40.8933169],[-74.0592063,40.8933562],[-74.0592049,40.893447],[-74.059191,40.8943778],[-74.0591833,40.8948897],[-74.0591795,40.8951411],[-74.0591712,40.8954838],[-74.0591666,40.89567],[-74.0591649,40.8957049],[-74.0591613,40.8957398],[-74.0591557,40.8957745],[-74.0591482,40.895809],[-74.0591388,40.8958432],[-74.0591275,40.8958771],[-74.0589437,40.89639],[-74.0588479,40.896657],[-74.0586668,40.8971621],[-74.0586512,40.897203],[-74.0586346,40.8972438],[-74.0586076,40.8973057],[-74.0585787,40.8973671],[-74.0585477,40.8974279],[-74.0585148,40.8974882],[-74.0584901,40.8975308],[-74.0584644,40.8975731],[-74.0584377,40.8976151],[-74.058207,40.8980273],[-74.0580727,40.8982674],[-74.0577643,40.8988184],[-74.0577131,40.8989097],[-74.05765,40.8990517],[-74.0572923,40.8998553],[-74.0572424,40.8999674],[-74.0572325,40.9000366],[-74.0572308,40.9000453],[-74.0572278,40.9000606],[-74.0572241,40.9000758],[-74.0572204,40.9000911],[-74.057216,40.9001062],[-74.0572116,40.9001214],[-74.0572065,40.9001363],[-74.0572035,40.9001449],[-74.0571973,40.9001653],[-74.0571912,40.9001857],[-74.0571857,40.9002061],[-74.0571806,40.9002267],[-74.0571761,40.9002472],[-74.0571719,40.900268],[-74.0571684,40.9002885],[-74.0571651,40.9003093],[-74.0571625,40.9003311],[-74.0571617,40.9003377],[-74.0571612,40.9003444],[-74.057161,40.900351],[-74.0571609,40.9003576],[-74.0571609,40.9003643],[-74.0571608,40.900371],[-74.0571613,40.9003777],[-74.0571617,40.9003842],[-74.0571623,40.9003909],[-74.0571629,40.9003976],[-74.057164,40.9004041],[-74.0571649,40.9004108],[-74.0571662,40.9004174],[-74.0571675,40.9004241],[-74.057169,40.9004306],[-74.0571706,40.9004371],[-74.0571726,40.9004436],[-74.0571746,40.9004502],[-74.0571766,40.9004565],[-74.0571788,40.9004631],[-74.0571812,40.9004694],[-74.0571837,40.9004758],[-74.0571866,40.9004821],[-74.0571892,40.9004885],[-74.0571908,40.9004919],[-74.0571932,40.9004974],[-74.0571955,40.9005031],[-74.0571977,40.9005088],[-74.0571997,40.9005144],[-74.0572017,40.9005201],[-74.0572035,40.9005258],[-74.057205,40.9005314],[-74.0572065,40.9005373],[-74.0572079,40.9005429],[-74.0572092,40.9005488],[-74.0572103,40.9005546],[-74.0572111,40.9005604],[-74.0572118,40.9005649],[-74.0572133,40.9005737],[-74.0572151,40.9005826],[-74.057217,40.9005913],[-74.0572192,40.9005999],[-74.0572217,40.9006087],[-74.0572241,40.9006173],[-74.057227,40.900626],[-74.0572299,40.9006346],[-74.057233,40.9006431],[-74.0572365,40.9006516],[-74.0572401,40.9006601],[-74.0572452,40.9006724],[-74.057253,40.9006912],[-74.0572601,40.9007099],[-74.0572668,40.900729],[-74.0572732,40.9007479],[-74.0572789,40.9007669],[-74.0572845,40.9007862],[-74.0572893,40.9008054],[-74.0572939,40.9008246],[-74.0573229,40.9009553],[-74.0573224,40.9009615],[-74.0573214,40.9009723],[-74.0573207,40.9009831],[-74.0573202,40.9009939],[-74.0573201,40.9010049],[-74.05732,40.9010157],[-74.057322,40.9010951],[-74.0573237,40.9011431],[-74.0572534,40.9012688],[-74.057246,40.9013734],[-74.0572444,40.9014077],[-74.057249,40.9014563],[-74.0572708,40.9015161],[-74.0572848,40.9016151],[-74.0572822,40.9016395],[-74.0572845,40.9016693],[-74.0572913,40.9017572],[-74.0572908,40.9018356],[-74.0572731,40.9019196],[-74.0572419,40.9019816],[-74.0572241,40.9020347],[-74.0572239,40.9020747],[-74.0571924,40.9021842],[-74.0571653,40.9022155],[-74.0571212,40.9023543],[-74.0571089,40.9023887],[-74.0570872,40.9024596],[-74.0570564,40.9025305],[-74.0570228,40.9025992],[-74.0570224,40.9026496],[-74.0570069,40.9027047],[-74.0570008,40.9027412],[-74.0569944,40.9027803],[-74.0569575,40.9028558],[-74.0569209,40.9029243],[-74.0568992,40.9029885],[-74.0569021,40.9030321],[-74.0568837,40.903071],[-74.0568706,40.9030989],[-74.0568569,40.9031307],[-74.0568304,40.9031687],[-74.0568184,40.9032071],[-74.0568169,40.9032203],[-74.056818,40.9032234],[-74.0568187,40.9032265],[-74.0568193,40.9032298],[-74.0568195,40.903233],[-74.0568195,40.9032363],[-74.0568193,40.9032394],[-74.0568186,40.9032426],[-74.0568176,40.9032457],[-74.0568165,40.9032488],[-74.0568149,40.9032519],[-74.0568133,40.9032548],[-74.056811,40.9032584],[-74.0568053,40.9032666],[-74.0567996,40.9032746],[-74.0567934,40.9032827],[-74.0567873,40.9032905],[-74.0567809,40.9032984],[-74.0567745,40.9033061],[-74.0567677,40.9033138],[-74.0567608,40.9033215],[-74.0567538,40.9033288],[-74.0567465,40.9033364],[-74.0567381,40.9033444],[-74.0567356,40.9033466],[-74.0567328,40.9033488],[-74.0567299,40.9033507],[-74.0567269,40.9033528],[-74.0567217,40.9033557],[-74.0567185,40.9033572],[-74.0567151,40.9033585],[-74.0567117,40.9033599],[-74.0567081,40.9033611],[-74.0567045,40.9033621],[-74.0567006,40.9033629],[-74.056697,40.9033636],[-74.0566932,40.9033643],[-74.0566893,40.9033646],[-74.0566855,40.9033649],[-74.0566816,40.9033651],[-74.0566778,40.9033649],[-74.0566737,40.9033647],[-74.0566699,40.9033644],[-74.0566663,40.903364],[-74.0566611,40.903363],[-74.0566575,40.9033623],[-74.0566538,40.9033612],[-74.0566441,40.9033583],[-74.0566383,40.9033565],[-74.0566322,40.9033551],[-74.0566261,40.9033537],[-74.05662,40.9033527],[-74.0566139,40.9033516],[-74.0566076,40.9033507],[-74.0566012,40.9033502],[-74.0565949,40.9033497],[-74.0565886,40.9033493],[-74.0565823,40.9033491],[-74.0565759,40.9033493],[-74.0565696,40.9033494],[-74.0565635,40.9033497],[-74.0565572,40.9033502],[-74.0565508,40.9033509],[-74.0565447,40.9033517],[-74.0565384,40.9033527],[-74.0565323,40.9033539],[-74.0565261,40.9033552],[-74.0565202,40.9033568],[-74.0565144,40.9033585],[-74.0565085,40.9033601],[-74.0565026,40.9033622],[-74.0564969,40.9033642],[-74.0564912,40.9033666],[-74.0564869,40.9033686],[-74.0564828,40.9033705],[-74.056479,40.9033727],[-74.0564751,40.9033749],[-74.0564715,40.9033775],[-74.0564681,40.9033801],[-74.0564649,40.9033828],[-74.0564617,40.9033857],[-74.056459,40.9033886],[-74.0564562,40.9033917],[-74.0564537,40.9033948],[-74.0564517,40.903398],[-74.0564496,40.9034014],[-74.0564478,40.9034049],[-74.0564464,40.9034083],[-74.056445,40.9034119],[-74.0564441,40.9034155],[-74.0564434,40.9034191],[-74.0564427,40.9034227],[-74.0564424,40.9034265],[-74.0564424,40.9034301],[-74.0564439,40.9034766],[-74.0564418,40.9035284],[-74.0564318,40.9036398],[-74.0564251,40.9036491],[-74.0564162,40.9036619],[-74.0564078,40.9036749],[-74.0563998,40.9036879],[-74.056392,40.9037009],[-74.0563845,40.9037143],[-74.0563771,40.9037276],[-74.0563703,40.903741],[-74.0563636,40.9037545],[-74.0563569,40.9037696],[-74.0563556,40.9037728],[-74.0563546,40.9037763],[-74.0563537,40.9037797],[-74.0563532,40.9037831],[-74.0563528,40.9037866],[-74.0563527,40.9037902],[-74.0563529,40.9037936],[-74.0563531,40.903797],[-74.0563538,40.9038005],[-74.0563547,40.9038039],[-74.0563558,40.9038073],[-74.0563573,40.9038109],[-74.0563587,40.9038142],[-74.0563596,40.9038176],[-74.0563604,40.9038211],[-74.0563611,40.9038245],[-74.0563615,40.9038281],[-74.0563617,40.9038315],[-74.0563615,40.903835],[-74.0563612,40.9038386],[-74.0563605,40.903842],[-74.0563598,40.9038454],[-74.0563587,40.9038489],[-74.0563573,40.9038523],[-74.0563557,40.9038555],[-74.0563539,40.9038602],[-74.056352,40.903865],[-74.0563502,40.9038698],[-74.0563486,40.9038744],[-74.0563469,40.9038792],[-74.0563453,40.903884],[-74.0563442,40.9038888],[-74.0563428,40.9038936],[-74.0563418,40.9038985],[-74.0563407,40.9039033],[-74.0563397,40.9039083],[-74.056339,40.9039131],[-74.0563383,40.9039181],[-74.0563378,40.9039229],[-74.0563373,40.9039279],[-74.0563371,40.9039328],[-74.0563368,40.9039376],[-74.0563368,40.9039426],[-74.0563368,40.9039476],[-74.056337,40.9039529],[-74.0563369,40.903961],[-74.0563366,40.903969],[-74.0563361,40.9039769],[-74.0563354,40.903985],[-74.0563347,40.903993],[-74.0563337,40.9040009],[-74.0563325,40.9040088],[-74.0563311,40.9040169],[-74.0563295,40.9040248],[-74.0563278,40.9040326],[-74.0563253,40.9040421],[-74.0563246,40.904045],[-74.0563237,40.9040477],[-74.0563227,40.9040505],[-74.0563218,40.9040532],[-74.0563209,40.904056],[-74.0563186,40.9040613],[-74.0563172,40.904064],[-74.0563161,40.9040667],[-74.0563147,40.9040693],[-74.0563133,40.9040719],[-74.0563117,40.9040746],[-74.0563103,40.9040772],[-74.0563087,40.9040798],[-74.0563071,40.9040823],[-74.0563053,40.9040849],[-74.0563035,40.9040873],[-74.0563017,40.9040898],[-74.0562998,40.9040922],[-74.056298,40.9040946],[-74.056296,40.904097],[-74.0562939,40.9040994],[-74.0562919,40.9041018],[-74.0562875,40.9041064],[-74.0562853,40.9041087],[-74.0562828,40.9041109],[-74.0562805,40.9041131],[-74.056278,40.9041153],[-74.0562757,40.9041175],[-74.0562732,40.9041196],[-74.0562705,40.9041216],[-74.056268,40.9041237],[-74.0562652,40.9041257],[-74.0562625,40.9041276],[-74.0562598,40.9041297],[-74.0562571,40.9041315],[-74.0562543,40.9041334],[-74.0562514,40.9041351],[-74.0562484,40.904137],[-74.0562455,40.9041387],[-74.0562425,40.9041404],[-74.0562364,40.9041436],[-74.0562332,40.9041453],[-74.0562301,40.9041469],[-74.0562269,40.9041484],[-74.0562237,40.9041498],[-74.0562205,40.9041513],[-74.056214,40.9041538],[-74.0562106,40.9041552],[-74.0562072,40.9041564],[-74.0562038,40.9041576],[-74.0562004,40.9041588],[-74.056197,40.90416],[-74.0561933,40.904161],[-74.0561899,40.904162],[-74.0561865,40.904163],[-74.0561829,40.9041638],[-74.0561793,40.9041647],[-74.0561723,40.9041664],[-74.0561673,40.9041676],[-74.0561625,40.9041691],[-74.0561575,40.9041706],[-74.0561528,40.9041721],[-74.0561483,40.904174],[-74.0561435,40.9041759],[-74.0561392,40.9041779],[-74.0561346,40.9041801],[-74.0561303,40.9041823],[-74.0561262,40.9041847],[-74.0561222,40.9041871],[-74.0561181,40.9041898],[-74.0561142,40.9041924],[-74.0561106,40.9041953],[-74.0561069,40.9041982],[-74.0561035,40.9042011],[-74.0560951,40.9042088],[-74.0560837,40.9042194],[-74.0560728,40.90423],[-74.0560621,40.9042409],[-74.0560514,40.9042519],[-74.0560412,40.904263],[-74.0560311,40.9042743],[-74.0560216,40.9042855],[-74.056012,40.9042972],[-74.0560029,40.9043088],[-74.055994,40.9043204],[-74.0559853,40.9043324],[-74.0559768,40.9043444],[-74.0559686,40.9043564],[-74.0559609,40.9043685],[-74.0559533,40.9043808],[-74.055946,40.9043933],[-74.0559389,40.9044057],[-74.0559323,40.9044183],[-74.0559304,40.9044219],[-74.0559277,40.9044267],[-74.0559249,40.9044315],[-74.0559222,40.9044361],[-74.0559192,40.9044408],[-74.055916,40.9044454],[-74.0559128,40.90445],[-74.0559096,40.9044544],[-74.0559062,40.9044591],[-74.0559028,40.9044635],[-74.0558991,40.9044678],[-74.0558955,40.9044722],[-74.0558916,40.9044765],[-74.0558878,40.9044808],[-74.0558839,40.9044849],[-74.0558798,40.904489],[-74.0558757,40.9044931],[-74.0558714,40.9044972],[-74.055867,40.9045011],[-74.0558625,40.904505],[-74.0558579,40.9045088],[-74.0558534,40.9045127],[-74.0558486,40.9045163],[-74.0558438,40.9045201],[-74.0558388,40.9045237],[-74.0558341,40.9045272],[-74.0558289,40.9045306],[-74.0558239,40.9045341],[-74.0558186,40.9045375],[-74.0558134,40.9045407],[-74.055808,40.9045439],[-74.0558025,40.904547],[-74.0557971,40.9045501],[-74.0557916,40.904553],[-74.0557859,40.9045559],[-74.0557803,40.9045588],[-74.0557744,40.9045615],[-74.0557687,40.9045642],[-74.0557628,40.9045668],[-74.0557567,40.9045693],[-74.0557508,40.9045717],[-74.0556134,40.9046267],[-74.0556075,40.9046293],[-74.0556016,40.904632],[-74.0555955,40.9046344],[-74.0555894,40.904637],[-74.0555832,40.9046392],[-74.0555771,40.9046415],[-74.055571,40.9046437],[-74.0555647,40.9046458],[-74.0555583,40.9046478],[-74.055552,40.9046497],[-74.0555454,40.9046515],[-74.0555391,40.9046532],[-74.0555325,40.9046549],[-74.0555259,40.9046566],[-74.0555193,40.9046581],[-74.0555128,40.9046595],[-74.055506,40.9046608],[-74.0554994,40.904662],[-74.0554926,40.9046632],[-74.0554858,40.9046642],[-74.0554793,40.9046652],[-74.0554716,40.904666],[-74.0554655,40.9046668],[-74.0554594,40.9046678],[-74.0554533,40.9046687],[-74.0554471,40.9046699],[-74.055441,40.9046709],[-74.0554351,40.904672],[-74.055429,40.9046734],[-74.0554231,40.9046747],[-74.0554173,40.9046763],[-74.0554111,40.9046778],[-74.0554055,40.9046793],[-74.0553996,40.904681],[-74.0553937,40.9046829],[-74.055388,40.9046845],[-74.0553824,40.9046866],[-74.0553767,40.9046885],[-74.055371,40.9046907],[-74.0553654,40.9046927],[-74.0553599,40.9046949],[-74.0553545,40.9046973],[-74.055349,40.9046995],[-74.0553436,40.9047021],[-74.0553384,40.9047044],[-74.0553332,40.904707],[-74.0553279,40.9047097],[-74.0553227,40.9047124],[-74.0553177,40.9047152],[-74.0553127,40.9047181],[-74.0553077,40.904721],[-74.0553027,40.9047239],[-74.055298,40.9047269],[-74.0552934,40.90473],[-74.0552887,40.9047332],[-74.0552841,40.9047365],[-74.0552796,40.9047397],[-74.0552753,40.904743],[-74.0552707,40.9047464],[-74.0552666,40.9047498],[-74.0552623,40.9047534],[-74.0552582,40.904757],[-74.0552541,40.9047605],[-74.0552502,40.9047643],[-74.0552464,40.9047679],[-74.0552425,40.9047717],[-74.0552389,40.9047756],[-74.0552352,40.9047793],[-74.0552318,40.9047833],[-74.0552284,40.9047874],[-74.055225,40.9047913],[-74.0552218,40.9047954],[-74.0552186,40.9047995],[-74.0552156,40.9048036],[-74.0552126,40.9048077],[-74.0552099,40.904812],[-74.0552065,40.904817],[-74.055204,40.9048211],[-74.0552017,40.9048254],[-74.0551994,40.9048296],[-74.0551975,40.9048341],[-74.0551959,40.9048384],[-74.0551943,40.9048428],[-74.0551931,40.9048475],[-74.055192,40.9048519],[-74.0551911,40.9048564],[-74.0551903,40.9048608],[-74.0551899,40.9048637],[-74.0551894,40.9048667],[-74.0551887,40.9048696],[-74.055188,40.9048725],[-74.0551873,40.9048754],[-74.0551864,40.9048783],[-74.0551855,40.9048812],[-74.0551845,40.9048841],[-74.0551834,40.9048871],[-74.0551822,40.9048898],[-74.0551811,40.9048927],[-74.0551799,40.9048955],[-74.0551786,40.9048982],[-74.0551772,40.9049011],[-74.0551758,40.9049038],[-74.0551744,40.9049066],[-74.0551728,40.9049093],[-74.0551712,40.9049119],[-74.0551648,40.9049227],[-74.055155,40.9049393],[-74.0551458,40.904956],[-74.0551369,40.9049728],[-74.0551282,40.9049898],[-74.0551202,40.9050069],[-74.0551124,40.9050242],[-74.0551043,40.9050429],[-74.0551029,40.9050466],[-74.055102,40.9050506],[-74.0551013,40.9050544],[-74.0551008,40.9050571],[-74.0551006,40.9050609],[-74.0551006,40.9050648],[-74.0551008,40.9050688],[-74.0551012,40.9050727],[-74.0551021,40.9050765],[-74.0551029,40.9050804],[-74.0551054,40.9050866],[-74.055107,40.9050904],[-74.055109,40.905094],[-74.0551121,40.9050987],[-74.0551137,40.9051012],[-74.0551157,40.9051038],[-74.0551175,40.9051064],[-74.0551193,40.905109],[-74.0551211,40.9051116],[-74.0551226,40.9051143],[-74.0551242,40.9051169],[-74.0551257,40.9051196],[-74.0551273,40.9051224],[-74.0551287,40.9051251],[-74.05513,40.9051279],[-74.0551313,40.9051306],[-74.0551324,40.9051334],[-74.0551338,40.9051361],[-74.0551347,40.9051391],[-74.0551358,40.9051418],[-74.0551367,40.9051447],[-74.0551378,40.9051475],[-74.0551384,40.9051504],[-74.0551393,40.9051533],[-74.05514,40.9051561],[-74.0551406,40.905159],[-74.0551413,40.9051619],[-74.0551417,40.9051648],[-74.0551422,40.9051677],[-74.0551426,40.9051707],[-74.0551428,40.9051736],[-74.055143,40.9051765],[-74.0551432,40.9051794],[-74.0551432,40.9051823],[-74.0551434,40.9051859],[-74.0551434,40.905189],[-74.0551429,40.9051921],[-74.0551422,40.905195],[-74.0551408,40.9051979],[-74.0551392,40.9052008],[-74.0551372,40.9052034],[-74.0551349,40.905206],[-74.0551322,40.9052082],[-74.0551292,40.9052102],[-74.055126,40.9052119],[-74.0551224,40.9052135],[-74.0551188,40.9052148],[-74.0551149,40.9052157],[-74.0551111,40.9052163],[-74.055107,40.9052167],[-74.0550525,40.9052189],[-74.0549831,40.9052231],[-74.0549466,40.9052322],[-74.0549223,40.9052458],[-74.0548977,40.9053052],[-74.0548884,40.9053419],[-74.0548713,40.9054048],[-74.0548632,40.905501],[-74.0548578,40.9055213],[-74.054858,40.9055254],[-74.0548582,40.9055293],[-74.0548584,40.9055334],[-74.0548584,40.9055376],[-74.0548584,40.9055417],[-74.0548581,40.9055456],[-74.0548579,40.9055497],[-74.0548574,40.9055538],[-74.0548569,40.9055578],[-74.0548564,40.9055619],[-74.0548557,40.905566],[-74.054855,40.90557],[-74.0548541,40.9055741],[-74.0548531,40.905578],[-74.0548522,40.905582],[-74.0548511,40.9055861],[-74.0548499,40.90559],[-74.0548485,40.905594],[-74.0548467,40.9055993],[-74.0548455,40.9056024],[-74.0548446,40.9056053],[-74.0548437,40.9056083],[-74.0548427,40.9056114],[-74.054842,40.9056145],[-74.0548413,40.9056176],[-74.0548406,40.9056207],[-74.0548402,40.9056239],[-74.0548397,40.905627],[-74.0548392,40.9056301],[-74.054839,40.9056332],[-74.0548387,40.9056365],[-74.0548385,40.9056396],[-74.0548382,40.9056426],[-74.0548382,40.9056457],[-74.0548382,40.905649],[-74.0548384,40.9056521],[-74.0548386,40.9056552],[-74.0548388,40.9056584],[-74.054839,40.9056615],[-74.0548394,40.9056646],[-74.0548399,40.9056677],[-74.0548405,40.9056708],[-74.0548464,40.9057027],[-74.0548505,40.905741],[-74.0548513,40.9057453],[-74.0548518,40.9057496],[-74.0548522,40.9057539],[-74.0548522,40.9057582],[-74.0548521,40.9057626],[-74.0548519,40.9057669],[-74.0548514,40.9057712],[-74.0548507,40.9057755],[-74.0548498,40.9057798],[-74.0548488,40.9057839],[-74.0548474,40.9057882],[-74.054846,40.9057923],[-74.0548444,40.9057964],[-74.0548426,40.9058005],[-74.0548405,40.9058046],[-74.0548383,40.9058085],[-74.054836,40.9058125],[-74.0548335,40.9058162],[-74.0548307,40.90582],[-74.0548278,40.9058238],[-74.0548246,40.9058274],[-74.0548214,40.9058309],[-74.0548011,40.9058521],[-74.0547932,40.905879],[-74.0547937,40.9058818],[-74.0547939,40.9058854],[-74.0547941,40.9058881],[-74.0547936,40.9058917],[-74.0547934,40.9058945],[-74.0547924,40.9058981],[-74.0547915,40.9059008],[-74.0547901,40.9059043],[-74.0547885,40.9059075],[-74.0547869,40.9059106],[-74.0547853,40.9059137],[-74.0547839,40.9059168],[-74.0547823,40.90592],[-74.0547812,40.9059231],[-74.0547798,40.9059263],[-74.0547786,40.9059296],[-74.0547775,40.9059329],[-74.0547766,40.9059359],[-74.0547756,40.9059392],[-74.0547747,40.9059425],[-74.0547738,40.9059457],[-74.0547731,40.9059491],[-74.0547719,40.9059543],[-74.0547712,40.9059577],[-74.0547703,40.9059608],[-74.0547692,40.905964],[-74.054768,40.9059673],[-74.0547666,40.9059704],[-74.054765,40.9059736],[-74.0547634,40.9059765],[-74.0547616,40.9059796],[-74.0547595,40.9059827],[-74.0547575,40.9059856],[-74.0547552,40.9059884],[-74.0547529,40.9059913],[-74.0547504,40.905994],[-74.0547479,40.9059967],[-74.0547452,40.9059993],[-74.0547422,40.9060019],[-74.0547393,40.9060042],[-74.0547361,40.9060068],[-74.0547324,40.9060097],[-74.054729,40.9060128],[-74.0547258,40.9060159],[-74.0547229,40.9060191],[-74.0547199,40.9060224],[-74.0547172,40.9060258],[-74.0547144,40.9060292],[-74.0547119,40.9060326],[-74.0547096,40.9060362],[-74.0547076,40.9060398],[-74.0547055,40.9060436],[-74.0547039,40.9060472],[-74.0547021,40.9060509],[-74.0547007,40.9060547],[-74.0546995,40.9060586],[-74.0546933,40.9060784],[-74.0546627,40.906153],[-74.0546623,40.9061558],[-74.0546616,40.9061585],[-74.0546609,40.9061614],[-74.0546602,40.9061642],[-74.0546595,40.9061669],[-74.0546586,40.9061697],[-74.0546579,40.9061724],[-74.0546567,40.9061751],[-74.0546558,40.9061779],[-74.0546535,40.9061832],[-74.0546523,40.9061859],[-74.054651,40.9061885],[-74.0546496,40.9061912],[-74.0546482,40.9061938],[-74.0546468,40.9061964],[-74.0546436,40.9062015],[-74.054642,40.9062041],[-74.0546404,40.9062066],[-74.0546386,40.9062092],[-74.0546368,40.9062116],[-74.054635,40.906214],[-74.0546331,40.9062166],[-74.054629,40.9062212],[-74.054627,40.9062236],[-74.0546249,40.906226],[-74.0546227,40.9062282],[-74.0546204,40.9062304],[-74.0546181,40.9062326],[-74.0546158,40.9062349],[-74.0546133,40.9062371],[-74.0546108,40.9062391],[-74.0546083,40.9062413],[-74.0546058,40.9062434],[-74.0546033,40.9062454],[-74.0546006,40.9062473],[-74.0545979,40.9062494],[-74.0545951,40.9062512],[-74.0545924,40.9062531],[-74.0545897,40.906255],[-74.054584,40.9062586],[-74.0545811,40.9062605],[-74.0545749,40.9062637],[-74.0544851,40.9063122],[-74.0544,40.90635],[-74.0543957,40.9063514],[-74.0543916,40.9063529],[-74.0543875,40.9063544],[-74.0543837,40.9063559],[-74.0543796,40.9063576],[-74.0543755,40.9063592],[-74.0543717,40.906361],[-74.0543678,40.9063627],[-74.054364,40.9063646],[-74.0543601,40.9063665],[-74.0543565,40.9063684],[-74.0543528,40.9063704],[-74.0543492,40.9063724],[-74.0543456,40.9063745],[-74.0543419,40.9063765],[-74.0543383,40.9063788],[-74.0543349,40.906381],[-74.0543315,40.9063832],[-74.0543281,40.9063856],[-74.0543249,40.906388],[-74.0543217,40.9063904],[-74.0543185,40.9063927],[-74.0543154,40.9063953],[-74.0543122,40.9063977],[-74.0543081,40.9064009],[-74.054301,40.9064066],[-74.054294,40.9064122],[-74.0542865,40.9064177],[-74.0542792,40.906423],[-74.0542715,40.9064282],[-74.0542638,40.9064335],[-74.0542561,40.9064385],[-74.0542481,40.9064434],[-74.0542402,40.9064484],[-74.054232,40.9064531],[-74.0542238,40.9064577],[-74.0542154,40.9064623],[-74.0542048,40.9064678],[-74.0542014,40.9064697],[-74.0541979,40.9064717],[-74.0541948,40.9064738],[-74.0541916,40.906476],[-74.0541886,40.9064782],[-74.0541857,40.9064804],[-74.0541829,40.9064828],[-74.0541802,40.9064854],[-74.0541777,40.9064879],[-74.0541752,40.9064905],[-74.0541729,40.9064931],[-74.0541706,40.9064958],[-74.0541686,40.9064987],[-74.0541668,40.9065014],[-74.0541649,40.9065043],[-74.0541631,40.9065073],[-74.0541615,40.9065102],[-74.0541601,40.9065133],[-74.054159,40.9065163],[-74.0541578,40.9065194],[-74.0541567,40.9065225],[-74.054156,40.9065256],[-74.0541553,40.9065288],[-74.0541546,40.9065319],[-74.0541543,40.9065352],[-74.0541541,40.9065383],[-74.0541538,40.9065415],[-74.0541538,40.9065448],[-74.0541555,40.906597],[-74.0541555,40.9066023],[-74.0541552,40.9066076],[-74.0541547,40.9066103],[-74.054154,40.9066156],[-74.0541531,40.906621],[-74.0541519,40.9066263],[-74.0541505,40.9066316],[-74.0541487,40.9066367],[-74.0541468,40.906642],[-74.0541445,40.9066472],[-74.0541422,40.9066521],[-74.0541395,40.9066571],[-74.0541367,40.9066621],[-74.0541335,40.9066669],[-74.0541304,40.9066717],[-74.0541285,40.906674],[-74.0541034,40.9067074],[-74.0541011,40.9067103],[-74.0540991,40.9067134],[-74.0540968,40.9067165],[-74.0540948,40.9067197],[-74.0540929,40.9067228],[-74.0540909,40.9067259],[-74.054089,40.9067291],[-74.0540874,40.9067324],[-74.0540856,40.9067356],[-74.054084,40.9067389],[-74.0540826,40.9067422],[-74.054081,40.9067454],[-74.0540796,40.9067487],[-74.0540783,40.9067521],[-74.0540771,40.9067555],[-74.0540759,40.9067588],[-74.0540748,40.9067622],[-74.0540739,40.9067656],[-74.0540729,40.9067691],[-74.054072,40.9067725],[-74.0540713,40.9067759],[-74.0540706,40.9067793],[-74.0540701,40.9067828],[-74.0540694,40.9067862],[-74.0540692,40.9067896],[-74.0540687,40.9067931],[-74.0540685,40.9067967],[-74.0540682,40.9068001],[-74.0540682,40.9068035],[-74.0540679,40.9068071],[-74.0540681,40.9068105],[-74.0540681,40.906814],[-74.0540683,40.9068174],[-74.0540685,40.906821],[-74.0540689,40.9068244],[-74.0540694,40.9068279],[-74.0540698,40.9068313],[-74.0540705,40.9068347],[-74.0540711,40.9068382],[-74.054072,40.9068416],[-74.0540727,40.906845],[-74.0540738,40.9068485],[-74.0540746,40.9068519],[-74.0540757,40.9068554],[-74.0540769,40.9068586],[-74.0541022,40.9069309],[-74.054117,40.9069713],[-74.0541445,40.9070491],[-74.0541705,40.9071282],[-74.0541716,40.9071319],[-74.0541725,40.9071359],[-74.0541731,40.90714],[-74.0541738,40.9071439],[-74.0541742,40.9071479],[-74.0541742,40.9071518],[-74.0541744,40.907156],[-74.0541741,40.9071599],[-74.0541736,40.9071639],[-74.0541731,40.9071678],[-74.0541724,40.9071719],[-74.0541715,40.9071759],[-74.0541704,40.9071796],[-74.0541692,40.9071836],[-74.0541676,40.9071875],[-74.054166,40.9071913],[-74.0541641,40.907195],[-74.0541623,40.9071986],[-74.05416,40.9072024],[-74.0541577,40.907206],[-74.0541552,40.9072094],[-74.0541527,40.907213],[-74.0541498,40.9072164],[-74.0541468,40.9072197],[-74.0541438,40.9072229],[-74.0541406,40.907226],[-74.0541372,40.9072291],[-74.0541336,40.9072321],[-74.05413,40.9072351],[-74.0541256,40.9072383],[-74.0541209,40.907242],[-74.0541163,40.907246],[-74.0541118,40.9072499],[-74.0541077,40.907254],[-74.0541036,40.9072583],[-74.0540999,40.9072626],[-74.0540963,40.907267],[-74.0540929,40.9072714],[-74.0540897,40.9072761],[-74.0540867,40.9072807],[-74.0540837,40.9072855],[-74.0540812,40.9072903],[-74.0540789,40.9072952],[-74.0540768,40.9073002],[-74.054075,40.9073052],[-74.0540734,40.9073101],[-74.0540516,40.9073814],[-74.0540498,40.9073852],[-74.054048,40.9073888],[-74.0540459,40.9073924],[-74.0540434,40.907396],[-74.0540407,40.9073994],[-74.0540379,40.9074027],[-74.0540347,40.9074059],[-74.0540313,40.907409],[-74.0540279,40.9074119],[-74.0540241,40.9074146],[-74.0540202,40.9074173],[-74.0540161,40.9074197],[-74.0540118,40.9074219],[-74.0540075,40.9074241],[-74.0540043,40.9074255],[-74.0539998,40.9074272],[-74.053995,40.9074289],[-74.0539916,40.9074299],[-74.0539869,40.9074313],[-74.0539819,40.9074323],[-74.0539767,40.9074333],[-74.0539728,40.9074338],[-74.0539692,40.9074343],[-74.0539622,40.907435],[-74.0539586,40.9074353],[-74.0539515,40.9074358],[-74.0539479,40.9074359],[-74.0539443,40.9074361],[-74.0539371,40.9074362],[-74.0539301,40.9074362],[-74.0539265,40.907436],[-74.0539228,40.9074358],[-74.0539158,40.9074355],[-74.0539122,40.9074351],[-74.0539052,40.9074344],[-74.0539016,40.9074339],[-74.0538946,40.907433],[-74.053891,40.9074323],[-74.0538842,40.907431],[-74.0538806,40.9074303],[-74.0538738,40.9074288],[-74.0538027,40.9074115],[-74.0537991,40.9074106],[-74.0537946,40.9074096],[-74.0537901,40.9074086],[-74.0537855,40.9074078],[-74.0537808,40.9074071],[-74.0537763,40.9074066],[-74.0537715,40.9074061],[-74.053767,40.9074059],[-74.0537623,40.9074057],[-74.0537575,40.9074057],[-74.0537528,40.9074057],[-74.0537482,40.9074058],[-74.0537435,40.9074061],[-74.053739,40.9074066],[-74.0537342,40.9074071],[-74.0537297,40.9074078],[-74.0537251,40.9074086],[-74.0537206,40.9074095],[-74.0537161,40.9074105],[-74.0537116,40.9074117],[-74.0537073,40.907413],[-74.053703,40.9074144],[-74.0536986,40.9074159],[-74.0536946,40.9074174],[-74.0536905,40.9074191],[-74.0536864,40.907421],[-74.053563,40.9074799],[-74.0535591,40.9074826],[-74.0535555,40.9074855],[-74.053553,40.9074876],[-74.0535498,40.9074907],[-74.0535466,40.9074939],[-74.0535437,40.9074973],[-74.0535411,40.9075009],[-74.0535386,40.9075045],[-74.0535366,40.9075081],[-74.0535347,40.9075119],[-74.0535331,40.9075158],[-74.0535317,40.9075196],[-74.0535303,40.9075249],[-74.0535294,40.9075288],[-74.0535292,40.9075316],[-74.0535289,40.9075343],[-74.0535289,40.9075383],[-74.0535291,40.907541],[-74.0535293,40.907545],[-74.0535297,40.9075477],[-74.0535302,40.907552],[-74.0535306,40.9075563],[-74.0535306,40.9075607],[-74.0535305,40.907565],[-74.0535301,40.9075693],[-74.0535296,40.9075736],[-74.0535289,40.9075779],[-74.0535279,40.9075822],[-74.053527,40.9075865],[-74.0535256,40.9075906],[-74.0535242,40.9075949],[-74.0535224,40.907599],[-74.0535206,40.9076031],[-74.0535185,40.907607],[-74.0535164,40.9076111],[-74.0535139,40.9076149],[-74.0535114,40.9076188],[-74.0535084,40.9076226],[-74.0535057,40.9076264],[-74.0535025,40.90763],[-74.0534993,40.9076334],[-74.0534957,40.907637],[-74.0534923,40.9076402],[-74.0534884,40.9076434],[-74.0534845,40.9076467],[-74.0534804,40.9076498],[-74.0534764,40.9076527],[-74.0533953,40.9077078],[-74.0533921,40.9077102],[-74.0533889,40.9077127],[-74.0533857,40.9077154],[-74.0533828,40.907718],[-74.0533798,40.9077207],[-74.0533768,40.9077235],[-74.0533739,40.9077262],[-74.0533711,40.9077291],[-74.0533684,40.9077319],[-74.0533657,40.9077348],[-74.0533632,40.9077377],[-74.0533607,40.9077406],[-74.0533582,40.9077436],[-74.0533556,40.9077466],[-74.0533534,40.9077496],[-74.0533511,40.9077527],[-74.053349,40.9077558],[-74.0533467,40.907759],[-74.0533447,40.9077621],[-74.0533429,40.9077654],[-74.0533408,40.9077686],[-74.053339,40.9077717],[-74.0533374,40.9077751],[-74.0533355,40.9077784],[-74.0533339,40.9077816],[-74.0533326,40.9077849],[-74.0533312,40.9077883],[-74.0533298,40.9077917],[-74.0533284,40.907795],[-74.0533273,40.9077984],[-74.0533256,40.9078032],[-74.0533238,40.907808],[-74.0533217,40.9078128],[-74.0533197,40.9078176],[-74.0533176,40.9078224],[-74.0533153,40.907827],[-74.0533128,40.9078318],[-74.0533103,40.9078364],[-74.0533078,40.9078411],[-74.053305,40.9078457],[-74.0533023,40.9078503],[-74.0532993,40.9078548],[-74.0532963,40.9078592],[-74.0532931,40.9078637],[-74.0532911,40.9078667],[-74.0532881,40.907871],[-74.0532854,40.9078751],[-74.0532828,40.9078794],[-74.0532801,40.9078835],[-74.0532778,40.9078878],[-74.0532755,40.9078922],[-74.0532732,40.9078965],[-74.0532709,40.907901],[-74.0532689,40.9079053],[-74.053267,40.9079097],[-74.0532652,40.9079142],[-74.0532634,40.9079186],[-74.0532618,40.9079231],[-74.0532604,40.9079277],[-74.053259,40.9079321],[-74.0532576,40.9079368],[-74.0532564,40.9079414],[-74.0532553,40.9079459],[-74.0532541,40.9079505],[-74.0532534,40.9079551],[-74.0532525,40.9079597],[-74.0532517,40.9079644],[-74.0532513,40.907969],[-74.0532508,40.9079736],[-74.0532503,40.9079783],[-74.05325,40.9079831],[-74.05325,40.9079877],[-74.05325,40.9079923],[-74.0532499,40.907997],[-74.0532501,40.9080016],[-74.0532503,40.9080064],[-74.053259,40.9081258],[-74.053259,40.9081289],[-74.0532585,40.9081322],[-74.0532581,40.9081354],[-74.0532571,40.9081387],[-74.0532562,40.908142],[-74.0532548,40.908145],[-74.0532534,40.9081483],[-74.0532518,40.9081512],[-74.0532498,40.9081543],[-74.0532477,40.9081572],[-74.0532455,40.9081599],[-74.0532429,40.9081627],[-74.0532404,40.9081652],[-74.0532375,40.9081678],[-74.0532345,40.9081702],[-74.0532314,40.9081724],[-74.0532279,40.9081746],[-74.0532245,40.9081767],[-74.0532209,40.9081785],[-74.0532173,40.9081802],[-74.0532134,40.9081818],[-74.0532093,40.9081831],[-74.0532053,40.9081845],[-74.0532012,40.9081855],[-74.0531971,40.9081865],[-74.0531928,40.9081872],[-74.0531885,40.9081878],[-74.0531849,40.9081883],[-74.0531804,40.908189],[-74.0531758,40.9081895],[-74.0531713,40.9081898],[-74.0531668,40.9081902],[-74.0531623,40.9081903],[-74.0531546,40.908191],[-74.0531199,40.9081948],[-74.0530853,40.9081989],[-74.0530509,40.9082036],[-74.0530167,40.9082088],[-74.053012,40.9082096],[-74.0530075,40.9082106],[-74.0530029,40.9082118],[-74.0529984,40.9082132],[-74.0529941,40.9082147],[-74.05299,40.9082164],[-74.0529859,40.9082183],[-74.0529818,40.9082203],[-74.052978,40.9082225],[-74.0529743,40.9082249],[-74.0529709,40.9082273],[-74.0529675,40.90823],[-74.0529643,40.9082328],[-74.0529616,40.9082357],[-74.0529589,40.9082386],[-74.0529561,40.9082417],[-74.0529539,40.9082449],[-74.0529518,40.9082482],[-74.05295,40.9082514],[-74.0529484,40.9082548],[-74.052947,40.9082583],[-74.0529456,40.9082622],[-74.0529435,40.9082667],[-74.0529415,40.9082709],[-74.0529392,40.9082752],[-74.0529367,40.9082795],[-74.0529339,40.9082836],[-74.052931,40.9082877],[-74.052928,40.9082918],[-74.0529248,40.9082958],[-74.0529212,40.9082995],[-74.0529177,40.9083033],[-74.0529139,40.9083069],[-74.05291,40.9083105],[-74.0529057,40.9083139],[-74.0529016,40.9083173],[-74.052897,40.9083205],[-74.0528925,40.9083236],[-74.0528877,40.9083265],[-74.052883,40.9083294],[-74.052878,40.9083321],[-74.052873,40.9083347],[-74.0528678,40.9083371],[-74.0528623,40.9083394],[-74.0528571,40.9083415],[-74.0528514,40.9083435],[-74.052846,40.9083454],[-74.0528401,40.9083472],[-74.0528344,40.9083488],[-74.0528285,40.9083501],[-74.0528227,40.9083515],[-74.0528177,40.9083525],[-74.0528127,40.9083538],[-74.0528079,40.9083553],[-74.0528032,40.908357],[-74.0527986,40.9083589],[-74.0527941,40.908361],[-74.0527898,40.9083632],[-74.0527857,40.9083656],[-74.0527816,40.9083681],[-74.0527778,40.9083708],[-74.0527743,40.9083737],[-74.0527709,40.9083768],[-74.0527677,40.9083799],[-74.0527646,40.9083831],[-74.0527618,40.9083866],[-74.0527593,40.90839],[-74.052757,40.9083936],[-74.0527552,40.9083972],[-74.0527538,40.9083997],[-74.0527524,40.9084035],[-74.052751,40.9084073],[-74.0527499,40.9084112],[-74.0527492,40.9084152],[-74.0527447,40.9084417],[-74.052744,40.9084465],[-74.0527428,40.9084512],[-74.0527417,40.908456],[-74.0527401,40.9084606],[-74.0527384,40.9084652],[-74.0527366,40.9084698],[-74.0527343,40.9084745],[-74.052732,40.9084789],[-74.0527295,40.9084832],[-74.0527268,40.9084876],[-74.052724,40.9084919],[-74.0527208,40.908496],[-74.0527174,40.9085001],[-74.052714,40.9085042],[-74.0527103,40.908508],[-74.0527065,40.9085119],[-74.0527024,40.9085155],[-74.0526983,40.9085193],[-74.0526937,40.9085227],[-74.0526894,40.9085261],[-74.0526846,40.9085293],[-74.0526799,40.9085324],[-74.0526749,40.9085355],[-74.0526697,40.9085382],[-74.0526644,40.9085409],[-74.0526592,40.9085437],[-74.0526538,40.908546],[-74.0526481,40.9085482],[-74.0526424,40.9085505],[-74.0526368,40.9085525],[-74.0526309,40.9085544],[-74.052625,40.9085561],[-74.0526189,40.9085576],[-74.0526128,40.9085589],[-74.0525125,40.9085801],[-74.0525066,40.9085812],[-74.0525009,40.9085825],[-74.0524952,40.9085839],[-74.0524898,40.9085854],[-74.0524841,40.9085871],[-74.0524789,40.9085889],[-74.0524735,40.908591],[-74.0524683,40.9085932],[-74.052463,40.9085954],[-74.0524581,40.9085978],[-74.0524531,40.9086003],[-74.0524483,40.9086031],[-74.0524438,40.9086058],[-74.0524392,40.9086087],[-74.0524347,40.9086118],[-74.0524306,40.9086148],[-74.0524265,40.9086181],[-74.0524224,40.9086215],[-74.0524185,40.9086249],[-74.0524149,40.9086285],[-74.0524115,40.9086322],[-74.0524083,40.908636],[-74.0524051,40.9086398],[-74.0524021,40.9086437],[-74.0523994,40.9086476],[-74.0523969,40.9086518],[-74.0523944,40.9086559],[-74.0523921,40.9086601],[-74.0523902,40.9086643],[-74.0523884,40.9086685],[-74.0523868,40.908673],[-74.0523854,40.9086773],[-74.052384,40.9086817],[-74.0523831,40.9086862],[-74.0523824,40.9086906],[-74.0523816,40.9086951],[-74.0523814,40.9086996],[-74.0523811,40.9087042],[-74.0523811,40.9087086],[-74.0523834,40.9088066],[-74.0523822,40.9088112],[-74.0523808,40.908816],[-74.0523794,40.9088207],[-74.0523776,40.9088253],[-74.0523755,40.9088299],[-74.0523735,40.9088345],[-74.052371,40.908839],[-74.0523684,40.9088433],[-74.0523657,40.9088477],[-74.0523625,40.908852],[-74.0523593,40.9088561],[-74.0523559,40.9088602],[-74.0523525,40.9088641],[-74.0523486,40.9088681],[-74.0523447,40.9088718],[-74.0523406,40.9088756],[-74.0523363,40.9088792],[-74.052332,40.9088826],[-74.0523272,40.908886],[-74.0523227,40.9088892],[-74.0523177,40.9088923],[-74.0523127,40.9088952],[-74.0523075,40.9088981],[-74.0523022,40.9089008],[-74.0522968,40.9089034],[-74.0522914,40.9089058],[-74.0522857,40.908908],[-74.0522088,40.9089374],[-74.0522038,40.9089396],[-74.0521968,40.9089428],[-74.05219,40.9089462],[-74.052183,40.9089498],[-74.0521764,40.9089532],[-74.0521696,40.9089569],[-74.052163,40.9089607],[-74.0521566,40.9089644],[-74.0521501,40.9089683],[-74.0521437,40.9089723],[-74.0521376,40.9089764],[-74.0521314,40.9089806],[-74.0521253,40.9089849],[-74.0521194,40.9089892],[-74.0521137,40.9089936],[-74.0521078,40.908998],[-74.0521023,40.9090025],[-74.0520967,40.9090071],[-74.0520912,40.9090119],[-74.052086,40.9090167],[-74.0520807,40.9090214],[-74.0520757,40.9090264],[-74.0520707,40.9090313],[-74.0520659,40.9090363],[-74.0520611,40.9090414],[-74.0520564,40.9090466],[-74.052052,40.9090519],[-74.0520475,40.9090572],[-74.0520434,40.9090625],[-74.0520393,40.9090678],[-74.0520351,40.9090732],[-74.0520313,40.9090787],[-74.0520274,40.9090844],[-74.0520237,40.9090898],[-74.0520203,40.9090955],[-74.0520169,40.9091011],[-74.0520137,40.909107],[-74.0520107,40.9091128],[-74.0520077,40.9091186],[-74.0520047,40.9091244],[-74.052002,40.9091302],[-74.0519994,40.9091362],[-74.0519971,40.9091422],[-74.0519948,40.9091482],[-74.0519925,40.9091542],[-74.0519905,40.9091602],[-74.0519886,40.9091662],[-74.051987,40.9091724],[-74.0519854,40.9091785],[-74.0519847,40.9091816],[-74.0519833,40.9091863],[-74.0519817,40.9091909],[-74.0519798,40.9091955],[-74.0519778,40.9092],[-74.0519755,40.9092044],[-74.051973,40.9092089],[-74.0519702,40.9092131],[-74.0519675,40.9092174],[-74.0519643,40.9092217],[-74.0519611,40.9092258],[-74.0519577,40.9092297],[-74.051954,40.9092337],[-74.0519504,40.9092376],[-74.0519463,40.9092414],[-74.0519422,40.9092449],[-74.0519379,40.9092484],[-74.0519333,40.9092518],[-74.0519288,40.909255],[-74.0519247,40.9092579],[-74.0519204,40.909261],[-74.0519163,40.9092641],[-74.051912,40.9092673],[-74.0519079,40.9092706],[-74.0519038,40.909274],[-74.0518999,40.9092774],[-74.051896,40.9092808],[-74.0518922,40.9092842],[-74.0518885,40.9092878],[-74.0518849,40.9092914],[-74.0518815,40.909295],[-74.0518778,40.9092986],[-74.0518746,40.9093023],[-74.0518712,40.9093061],[-74.051868,40.9093099],[-74.0518651,40.9093138],[-74.0518619,40.9093177],[-74.0518589,40.9093217],[-74.0518571,40.9093242],[-74.0518532,40.9093294],[-74.0518498,40.9093347],[-74.0518463,40.90934],[-74.0518431,40.9093453],[-74.0518399,40.9093507],[-74.0518367,40.9093562],[-74.051834,40.9093617],[-74.051831,40.9093672],[-74.0518285,40.9093727],[-74.051826,40.9093783],[-74.0518234,40.9093838],[-74.0518211,40.9093894],[-74.0518184,40.9093973],[-74.051817,40.9094004],[-74.0518156,40.9094035],[-74.0518142,40.9094067],[-74.0518128,40.9094098],[-74.0518112,40.9094129],[-74.0518096,40.909416],[-74.051808,40.9094191],[-74.0518062,40.9094222],[-74.0518044,40.9094251],[-74.0518025,40.9094281],[-74.0518005,40.9094311],[-74.0517987,40.909434],[-74.0517964,40.9094369],[-74.0517943,40.9094398],[-74.051792,40.9094427],[-74.0517898,40.9094454],[-74.0517875,40.9094482],[-74.051785,40.9094509],[-74.0517825,40.9094536],[-74.05178,40.9094564],[-74.0517775,40.9094591],[-74.0517378,40.9094987],[-74.0517349,40.9095027],[-74.0517312,40.9095071],[-74.0517276,40.9095116],[-74.0517237,40.909516],[-74.0517198,40.9095203],[-74.0517157,40.9095246],[-74.0517116,40.9095288],[-74.0517075,40.9095329],[-74.0517032,40.9095372],[-74.0516987,40.9095411],[-74.0516943,40.9095452],[-74.0516898,40.9095492],[-74.051685,40.9095531],[-74.0516802,40.9095569],[-74.0516755,40.9095606],[-74.0516705,40.9095644],[-74.0516655,40.9095679],[-74.0516605,40.9095715],[-74.0516552,40.9095749],[-74.05165,40.9095783],[-74.0516446,40.9095818],[-74.0516391,40.909585],[-74.0516337,40.9095882],[-74.0516282,40.9095913],[-74.0516226,40.9095944],[-74.0514973,40.9096615],[-74.0514923,40.9096644],[-74.0514873,40.9096673],[-74.0514825,40.9096702],[-74.0514777,40.9096732],[-74.0514732,40.9096763],[-74.0514684,40.9096794],[-74.0514639,40.9096826],[-74.0514596,40.9096859],[-74.051455,40.9096893],[-74.0514507,40.9096927],[-74.0514466,40.9096961],[-74.0514423,40.9096995],[-74.0514384,40.9097031],[-74.0514343,40.9097067],[-74.0514305,40.9097105],[-74.0514266,40.909714],[-74.051423,40.9097178],[-74.0514193,40.9097217],[-74.0514157,40.9097255],[-74.0514122,40.9097294],[-74.0514088,40.9097334],[-74.0514054,40.9097373],[-74.0514022,40.9097414],[-74.0513972,40.9097479],[-74.0513878,40.9097594],[-74.0513783,40.9097708],[-74.0513685,40.9097821],[-74.0513582,40.9097932],[-74.051348,40.9098041],[-74.0513373,40.9098151],[-74.0513266,40.9098257],[-74.0513154,40.9098363],[-74.0513122,40.9098395],[-74.0513088,40.9098428],[-74.0513054,40.9098462],[-74.0513022,40.9098496],[-74.051299,40.909853],[-74.0512961,40.9098564],[-74.0512931,40.90986],[-74.0512901,40.9098636],[-74.0512874,40.9098672],[-74.0512847,40.9098708],[-74.0512819,40.9098746],[-74.0512794,40.9098783],[-74.0512769,40.9098819],[-74.0512746,40.9098859],[-74.0512723,40.9098896],[-74.05127,40.9098934],[-74.051268,40.9098973],[-74.0512659,40.9099013],[-74.0512638,40.909905],[-74.051262,40.9099091],[-74.0512604,40.9099131],[-74.0512586,40.909917],[-74.0512572,40.9099201],[-74.0512526,40.9099314],[-74.0512475,40.9099424],[-74.0512423,40.9099535],[-74.0512368,40.9099643],[-74.0512299,40.909977],[-74.0512262,40.9099838],[-74.0512221,40.9099907],[-74.051218,40.9099973],[-74.0512136,40.910004],[-74.0512091,40.9100107],[-74.0512045,40.9100173],[-74.0511997,40.9100239],[-74.0511947,40.9100303],[-74.0511897,40.9100367],[-74.0511844,40.910043],[-74.051179,40.9100493],[-74.0511735,40.9100555],[-74.0511678,40.9100616],[-74.0511621,40.9100676],[-74.0511562,40.9100736],[-74.05115,40.9100794],[-74.0511439,40.9100852],[-74.0511375,40.910091],[-74.0511312,40.9100967],[-74.0511273,40.9100999],[-74.0511186,40.9101076],[-74.0511102,40.9101155],[-74.0511018,40.9101233],[-74.0510936,40.9101313],[-74.0510856,40.9101395],[-74.0510779,40.9101478],[-74.0510702,40.9101561],[-74.0510629,40.9101645],[-74.0510556,40.9101731],[-74.0510485,40.9101816],[-74.0510419,40.9101903],[-74.0510353,40.9101992],[-74.0510286,40.9102081],[-74.0510225,40.910217],[-74.0510165,40.9102261],[-74.0510108,40.9102352],[-74.0510051,40.9102444],[-74.0509998,40.9102538],[-74.0509946,40.9102631],[-74.0509898,40.9102725],[-74.0509882,40.9102754],[-74.050984,40.9102829],[-74.0509799,40.9102905],[-74.0509756,40.9102978],[-74.050971,40.9103053],[-74.0509662,40.9103125],[-74.0509614,40.9103199],[-74.0509564,40.9103271],[-74.0509511,40.9103343],[-74.0509457,40.9103413],[-74.0509402,40.9103483],[-74.0509333,40.9103565],[-74.0508579,40.9104117],[-74.0507961,40.9104505],[-74.0507186,40.910483],[-74.0505605,40.9105197],[-74.0505279,40.9105322],[-74.0505099,40.9105391],[-74.0504245,40.910593],[-74.0503925,40.9106409],[-74.0503822,40.9106925],[-74.0504119,40.910747],[-74.0504181,40.9108113],[-74.0504177,40.9108707],[-74.0503926,40.9109034],[-74.0503191,40.9109372],[-74.0502921,40.9109762],[-74.0502868,40.911028],[-74.0503061,40.9111113],[-74.0503006,40.9111931],[-74.0502784,40.9112611],[-74.0502163,40.911358],[-74.0501455,40.9114903],[-74.0501196,40.9116026],[-74.0500923,40.9116921],[-74.0500706,40.9117337],[-74.0500379,40.9118112],[-74.0500254,40.9119639],[-74.0500082,40.9120244],[-74.0499713,40.9120647],[-74.0499079,40.9120809],[-74.0498479,40.9120857],[-74.0497927,40.912117],[-74.0497575,40.9121763],[-74.0497017,40.9122776],[-74.0496949,40.9123004],[-74.0495831,40.9122835],[-74.0497527,40.9124579],[-74.0498061,40.9125535],[-74.0498281,40.9126047],[-74.0497242,40.9126862],[-74.0496743,40.912744],[-74.0496514,40.9128154],[-74.0496197,40.912863],[-74.0495382,40.9129344],[-74.0494123,40.9129339],[-74.0493312,40.9129471],[-74.0490745,40.9130245],[-74.0489484,40.9130343],[-74.0488673,40.9130578],[-74.0488,40.9130404],[-74.0487009,40.9130538],[-74.0485707,40.9130395],[-74.0485031,40.91307],[-74.0484172,40.9131276],[-74.0483137,40.9131646],[-74.0481741,40.9131641],[-74.0480528,40.91315],[-74.0479497,40.9131054],[-74.0478915,40.9130813],[-74.0477961,40.913117],[-74.0477832,40.9131217],[-74.0477202,40.9131384],[-74.0475317,40.91309],[-74.0473787,40.9131066],[-74.0472439,40.9130719],[-74.0471274,40.9130169],[-74.0470161,40.9129888],[-74.0469398,40.9129679],[-74.046841,40.9129609],[-74.0466616,40.9129056],[-74.0464772,40.9128877],[-74.0463649,40.9128703],[-74.0462435,40.9128937],[-74.0461715,40.912873],[-74.0461405,40.9128217],[-74.046105,40.91275],[-74.0460694,40.9126953],[-74.0460023,40.9126609],[-74.0459032,40.9126571],[-74.0458267,40.9126705],[-74.0457542,40.9127553],[-74.0457314,40.9128201],[-74.0456726,40.9128506],[-74.0455646,40.9128671],[-74.045502,40.9128362],[-74.0453512,40.9127241],[-74.0453409,40.9127163],[-74.0453007,40.9126719],[-74.045292,40.9126139],[-74.0453423,40.9125015],[-74.0453111,40.912464],[-74.0452439,40.9124466],[-74.0451448,40.9124565],[-74.0450184,40.9125172],[-74.0448649,40.9126088],[-74.0448065,40.9126154],[-74.044614,40.9124851],[-74.0444751,40.9124231],[-74.0443002,40.9123372],[-74.0440362,40.9121658],[-74.043866,40.9120764],[-74.0436595,40.9120144],[-74.0434664,40.9119794],[-74.0431401,40.911984],[-74.0428836,40.9119864],[-74.042713,40.911972],[-74.0425289,40.911944],[-74.0423762,40.9119161],[-74.042255,40.9118748],[-74.0422361,40.9118639],[-74.0419848,40.911742],[-74.0419073,40.9117043],[-74.0418447,40.9116739],[-74.0418545,40.9116606],[-74.0418631,40.9116488],[-74.0418814,40.9116136],[-74.0418972,40.9115725],[-74.041906,40.9115206],[-74.041901,40.9114853],[-74.0418858,40.9114529],[-74.0418691,40.9114312],[-74.0418177,40.9113918],[-74.0417342,40.9113258],[-74.0416725,40.9112756],[-74.0416236,40.911248],[-74.0415018,40.9112112],[-74.0413857,40.9111833],[-74.0413186,40.9111742],[-74.041245,40.911171],[-74.0411585,40.9111667],[-74.0410164,40.9111505],[-74.040901,40.9111285],[-74.0407681,40.9110936],[-74.0406881,40.9110854],[-74.0405641,40.9110869],[-74.0404723,40.9110983],[-74.0403313,40.9111066],[-74.0402183,40.9111081],[-74.0401227,40.9111028],[-74.0400336,40.9110956],[-74.0399743,40.9110806],[-74.0397617,40.9110073],[-74.039725,40.9109797],[-74.039693,40.9109423],[-74.0396521,40.9108794],[-74.03961,40.9108038],[-74.0395653,40.9107242],[-74.0393421,40.9103126],[-74.0393064,40.9102341],[-74.039286,40.9101948],[-74.0392668,40.9101741],[-74.0392501,40.9101623],[-74.0392152,40.9101563],[-74.0391636,40.9101561],[-74.03913,40.910152],[-74.0390949,40.9101412],[-74.0390337,40.9101223],[-74.0389817,40.9101012],[-74.0389542,40.9100755],[-74.0389452,40.9100522],[-74.0389424,40.9100126],[-74.0389676,40.9099266],[-74.0389898,40.9098103],[-74.0390182,40.9097034],[-74.0390497,40.9095848],[-74.0390625,40.9095103],[-74.0390566,40.9094777],[-74.0390429,40.9094567],[-74.0390032,40.9094287],[-74.0389604,40.9094122],[-74.0388777,40.9093909],[-74.0387582,40.9093648],[-74.0386235,40.9093247],[-74.0386178,40.9093229],[-74.0384031,40.909254],[-74.0383425,40.9092274],[-74.0382747,40.9091976],[-74.0381859,40.9091717],[-74.0381185,40.9091598],[-74.0380449,40.9091548],[-74.0380019,40.909157],[-74.0379528,40.9091614],[-74.0379211,40.9091756],[-74.0379189,40.9091799],[-74.0378912,40.9092008],[-74.0378572,40.9092379],[-74.0378202,40.909268],[-74.0377818,40.9092771],[-74.0377511,40.9092747],[-74.0376654,40.9092511],[-74.0376226,40.9092276],[-74.0375921,40.9091949],[-74.0375493,40.9091738],[-74.0373564,40.9091218],[-74.0370932,40.909037],[-74.0368513,40.9089569],[-74.036686,40.9089143],[-74.0365909,40.908907],[-74.0365526,40.9089091],[-74.0365188,40.9089136],[-74.036485,40.9089275],[-74.0364541,40.9089529],[-74.03642,40.9090064],[-74.0363703,40.9090923],[-74.0363082,40.9091968],[-74.0362649,40.9092478],[-74.0362279,40.9092732],[-74.0361879,40.909287],[-74.036145,40.9092915],[-74.0360653,40.9092796],[-74.0359151,40.9092487],[-74.0358018,40.9092226],[-74.0357007,40.9092106],[-74.035541,40.9092286],[-74.0354765,40.90924],[-74.0354442,40.9092538],[-74.0354134,40.90927],[-74.0353734,40.9092931],[-74.0353357,40.9093464],[-74.0353073,40.909396],[-74.0352689,40.9095219],[-74.0352238,40.9096141],[-74.0351739,40.909724],[-74.0351608,40.9097354],[-74.0351463,40.9097458],[-74.0351305,40.9097551],[-74.0351136,40.9097632],[-74.0350957,40.9097699],[-74.035077,40.9097753],[-74.0350577,40.9097793],[-74.035038,40.9097819],[-74.0350181,40.9097829],[-74.0349981,40.9097825],[-74.0349782,40.9097806],[-74.0349587,40.9097773],[-74.0349397,40.9097725],[-74.0348433,40.9097288],[-74.0348312,40.9097233],[-74.0348182,40.9097194],[-74.0348045,40.9097171],[-74.0347904,40.9097163],[-74.0347764,40.9097172],[-74.0347628,40.9097198],[-74.0347498,40.9097239],[-74.0347378,40.9097294],[-74.0347271,40.9097363],[-74.0347179,40.9097444],[-74.0346662,40.9097957],[-74.034651,40.9098193],[-74.0346377,40.9098434],[-74.0346266,40.9098682],[-74.0346175,40.9098935],[-74.0346105,40.9099191],[-74.0346057,40.909945],[-74.034603,40.9099711],[-74.0346025,40.9099973],[-74.0346042,40.9100234],[-74.0346081,40.9100494],[-74.0346141,40.9100752],[-74.0346222,40.9101006],[-74.0346325,40.9101256],[-74.0346674,40.9102232],[-74.0346733,40.910232],[-74.0346771,40.9102415],[-74.0346789,40.9102513],[-74.0346785,40.9102612],[-74.034676,40.9102709],[-74.0346714,40.9102802],[-74.034665,40.9102888],[-74.0346567,40.9102965],[-74.0346469,40.9103031],[-74.0344436,40.9104181],[-74.0343268,40.9104526],[-74.0341484,40.9105077],[-74.0340869,40.9105424],[-74.0340191,40.910584],[-74.0339697,40.9106164],[-74.0339203,40.9106674],[-74.0339017,40.9106929],[-74.0338892,40.9107324],[-74.0338889,40.9107743],[-74.0338884,40.9108371],[-74.0339034,40.9108838],[-74.0339092,40.910935],[-74.0338967,40.9109652],[-74.0338813,40.9109814],[-74.0338351,40.9110045],[-74.0337951,40.9110136],[-74.0337061,40.9110203],[-74.0335696,40.9110174],[-74.0331431,40.9110226],[-74.0329315,40.9110218],[-74.0327934,40.9110212],[-74.0327014,40.9110209],[-74.0326492,40.9110323],[-74.0325907,40.9110577],[-74.0325536,40.9110924],[-74.0325134,40.9111458],[-74.032473,40.9112108],[-74.0324451,40.9112596],[-74.0324203,40.9112897],[-74.0323834,40.9113082],[-74.0323444,40.9113197],[-74.0322821,40.9113124],[-74.0322269,40.9113099],[-74.0321141,40.9112832],[-74.032058,40.9112706],[-74.0320112,40.9112615],[-74.0319668,40.9112578],[-74.0319293,40.9112558],[-74.0318895,40.9112592],[-74.0318356,40.9112697],[-74.0318021,40.9112872],[-74.0317652,40.9113127],[-74.0317312,40.9113428],[-74.0317034,40.9113683],[-74.0316697,40.9113915],[-74.0316689,40.9113926],[-74.0315538,40.9114222],[-74.0315128,40.9114343],[-74.0314726,40.9114479],[-74.0314334,40.9114629],[-74.0313952,40.9114795],[-74.0313581,40.9114974],[-74.0313223,40.9115167],[-74.0312878,40.9115373],[-74.0312546,40.9115592],[-74.0312435,40.9115683],[-74.031234,40.9115784],[-74.0312261,40.9115893],[-74.0312199,40.9116007],[-74.0312156,40.9116127],[-74.0312133,40.911625],[-74.0312128,40.9116374],[-74.0312144,40.9116497],[-74.0312178,40.9116618],[-74.0312232,40.9116735],[-74.0312303,40.9116847],[-74.0312392,40.9116951],[-74.0312496,40.9117047],[-74.0312615,40.9117132],[-74.0312746,40.9117206],[-74.0312888,40.9117268],[-74.0313039,40.9117317],[-74.0313211,40.9117361],[-74.0313558,40.911744],[-74.031391,40.9117507],[-74.0314265,40.9117561],[-74.0314624,40.9117603],[-74.0314985,40.9117631],[-74.0315347,40.9117646],[-74.0315709,40.9117648],[-74.0316072,40.9117637],[-74.0316433,40.9117613],[-74.0316763,40.9117606],[-74.0317004,40.9117872],[-74.0317339,40.9118222],[-74.0317491,40.9118502],[-74.031758,40.9118875],[-74.0317577,40.9119271],[-74.0317483,40.9119619],[-74.0317327,40.9119898],[-74.0316772,40.9120338],[-74.0316326,40.9120592],[-74.0314787,40.9121214],[-74.0312035,40.9122263],[-74.0311806,40.9122311],[-74.0311572,40.9122346],[-74.0311335,40.9122367],[-74.0311097,40.9122374],[-74.0310859,40.9122367],[-74.0310281,40.9122312],[-74.0310054,40.9122291],[-74.030983,40.9122256],[-74.0309612,40.9122207],[-74.03094,40.9122143],[-74.0309195,40.9122065],[-74.0309001,40.9121975],[-74.0308818,40.9121872],[-74.0308647,40.9121758],[-74.030849,40.9121632],[-74.0308348,40.9121497],[-74.0308222,40.9121353],[-74.0308112,40.9121202],[-74.0308021,40.9121044],[-74.0307948,40.912088],[-74.0307895,40.9120712],[-74.030786,40.9120542],[-74.0307845,40.912037],[-74.0307851,40.9120197],[-74.0307873,40.9119968],[-74.0307876,40.9119739],[-74.030786,40.911951],[-74.0307825,40.9119282],[-74.030777,40.9119056],[-74.0307697,40.9118834],[-74.0307604,40.9118615],[-74.0307494,40.9118401],[-74.0307262,40.9118175],[-74.0307015,40.9117957],[-74.0306756,40.9117748],[-74.0306484,40.9117549],[-74.03062,40.911736],[-74.0305904,40.9117181],[-74.0305597,40.9117012],[-74.0305281,40.9116855],[-74.0304955,40.9116709],[-74.030475,40.9116609],[-74.0304534,40.9116523],[-74.0304308,40.9116452],[-74.0304076,40.9116395],[-74.0303838,40.9116355],[-74.0303596,40.9116331],[-74.0303352,40.9116322],[-74.0303108,40.911633],[-74.0302866,40.9116354],[-74.0302628,40.9116394],[-74.0302395,40.911645],[-74.030217,40.9116521],[-74.0301953,40.9116606],[-74.0301748,40.9116706],[-74.0301555,40.9116819],[-74.0301385,40.9117007],[-74.030123,40.9117202],[-74.030109,40.9117404],[-74.0300966,40.9117611],[-74.0300858,40.9117824],[-74.0300766,40.9118041],[-74.0300691,40.9118261],[-74.0300634,40.9118485],[-74.0300638,40.9118921],[-74.0300662,40.9119356],[-74.0300708,40.9119791],[-74.0300774,40.9120225],[-74.030086,40.9120656],[-74.0300967,40.9121084],[-74.0301095,40.912151],[-74.0301243,40.9121931],[-74.030141,40.9122349],[-74.0301598,40.9122761],[-74.0301805,40.9123168],[-74.0302031,40.912357],[-74.0302276,40.9123964],[-74.0302353,40.9124124],[-74.0302409,40.9124288],[-74.0302444,40.9124456],[-74.0302457,40.9124626],[-74.0302449,40.9124795],[-74.0302418,40.9124963],[-74.0302367,40.9125129],[-74.0301363,40.9127687],[-74.0301352,40.9127738],[-74.0301353,40.912779],[-74.0301364,40.9127841],[-74.0301387,40.912789],[-74.030142,40.9127935],[-74.0301462,40.9127976],[-74.0301512,40.9128011],[-74.0301569,40.9128039],[-74.0301632,40.912806],[-74.0301698,40.9128073],[-74.0301981,40.9128139],[-74.0301895,40.9128586],[-74.0301701,40.9130075],[-74.030166,40.9131518],[-74.0301525,40.9133193],[-74.0300825,40.9136973],[-74.030063,40.913651],[-74.0300088,40.9135677],[-74.0298962,40.913473],[-74.0297289,40.9133809],[-74.0295396,40.9132831],[-74.0293028,40.9132046],[-74.0291207,40.9131373],[-74.0289348,40.9130756],[-74.028789,40.9130335],[-74.0287106,40.9130221],[-74.0282909,40.912976],[-74.0280354,40.9129389],[-74.0277948,40.9128825],[-74.0275724,40.912829],[-74.027423,40.9127702],[-74.0273138,40.9127227],[-74.0272156,40.9126696],[-74.0271647,40.9126334],[-74.0271285,40.9125861],[-74.0271087,40.9125445],[-74.0270662,40.9123559],[-74.0270188,40.912098],[-74.0269979,40.9119483],[-74.0269808,40.9117903],[-74.0269634,40.9116683],[-74.0269496,40.9115547],[-74.0269248,40.9114437],[-74.0268964,40.9113272],[-74.0268534,40.9112107],[-74.0268031,40.9111024],[-74.0267453,40.9110107],[-74.0266783,40.9109301],[-74.0266093,40.9108744],[-74.026442,40.9107684],[-74.026271,40.9106874],[-74.0261144,40.910623],[-74.0259505,40.9105503],[-74.0257977,40.9104748],[-74.025583,40.9103576],[-74.0254559,40.9102684],[-74.0253797,40.9101905],[-74.0253293,40.9100933],[-74.0253079,40.9100212],[-74.0252975,40.9099408],[-74.0252908,40.9098576],[-74.0252947,40.9098217],[-74.0253132,40.9097857],[-74.0253391,40.9097443],[-74.0254183,40.9096476],[-74.0255361,40.9095179],[-74.0256063,40.9094046],[-74.0256111,40.909388],[-74.02564,40.9092883],[-74.0256553,40.9091886],[-74.0256577,40.9091111],[-74.025638,40.9090303],[-74.0256293,40.9089946],[-74.0255557,40.9087218],[-74.0254911,40.9085314],[-74.0254475,40.9084035],[-74.0254001,40.9083358],[-74.025256,40.908195],[-74.0251052,40.9080693],[-74.0250413,40.9080015],[-74.0249808,40.9079286],[-74.0249238,40.9078308],[-74.024866,40.9077141],[-74.0248269,40.9075754],[-74.0248202,40.9074812],[-74.0248206,40.9074257],[-74.0248357,40.9073621],[-74.0248653,40.9073013],[-74.0249058,40.9072543],[-74.024939,40.9072184],[-74.024994,40.9071854],[-74.0250526,40.9071579],[-74.0251716,40.9071196],[-74.0254314,40.9070403],[-74.0256548,40.9069554],[-74.0258417,40.906873],[-74.0260285,40.9067879],[-74.0262523,40.9066558],[-74.0264541,40.9065264],[-74.0266986,40.9062947],[-74.0268716,40.9060959],[-74.0270264,40.9059026],[-74.027104,40.9057782],[-74.0271706,40.9056593],[-74.0272337,40.9055072],[-74.0272711,40.9053882],[-74.0272977,40.905247],[-74.0273022,40.9051251],[-74.0272832,40.9049616],[-74.0272599,40.9046484],[-74.0272542,40.9044239],[-74.027278,40.9041608],[-74.0273194,40.9039892],[-74.0273695,40.9038841],[-74.0275426,40.9036659],[-74.0276605,40.9035223],[-74.0279068,40.9032989],[-74.0280278,40.9032218],[-74.0282294,40.9031256],[-74.0283044,40.903101],[-74.0285568,40.9030411],[-74.0290434,40.9029239],[-74.0295595,40.9027598],[-74.0297157,40.9026954],[-74.0299056,40.9026171],[-74.0301952,40.9024548],[-74.03058,40.9022596],[-74.0309577,40.9020395],[-74.0312548,40.9018495],[-74.0314239,40.9017061],[-74.0315841,40.9015156],[-74.0317021,40.9013471],[-74.0317838,40.9011507],[-74.0318717,40.9008573],[-74.0319019,40.9007189],[-74.0319364,40.9004863],[-74.0319595,40.9003257],[-74.0319645,40.9001207],[-74.0319586,40.8999239],[-74.0319487,40.8997743],[-74.0319207,40.8995996],[-74.0318962,40.8994499],[-74.0318573,40.8992807],[-74.0317927,40.8991114],[-74.0317315,40.8989837],[-74.0316577,40.8988393],[-74.0314103,40.8983998],[-74.0312837,40.8981587],[-74.0312322,40.8979752],[-74.0311734,40.8977459],[-74.0311442,40.8975968],[-74.0311231,40.8973848],[-74.031117,40.8971843],[-74.0310961,40.8969322],[-74.0310933,40.896789],[-74.0311246,40.8966344],[-74.0311789,40.8964285],[-74.0312406,40.8962511],[-74.0313403,40.8960167],[-74.031447,40.895874],[-74.0315613,40.8957255],[-74.0317968,40.8955031],[-74.0320778,40.8952694],[-74.0324727,40.894933],[-74.0328292,40.8946882],[-74.0332426,40.894392],[-74.0337133,40.8940216],[-74.0342215,40.8936571],[-74.0347678,40.8932526],[-74.0351244,40.8929905],[-74.0354662,40.8926941],[-74.035732,40.8924546],[-74.0359489,40.8922034],[-74.036742,40.8910438],[-74.0369407,40.8906838],[-74.0370099,40.8905122],[-74.0370904,40.8903293],[-74.0371137,40.8902377],[-74.0371447,40.8901118],[-74.0371683,40.8899745],[-74.0371844,40.8898371],[-74.0372005,40.8896882],[-74.0372015,40.889545],[-74.0371949,40.8894075],[-74.0371657,40.8892699],[-74.0371365,40.8891266],[-74.0370999,40.8889718],[-74.0370595,40.8888562],[-74.0369358,40.8886627],[-74.0368349,40.8885411],[-74.0366246,40.8883971],[-74.0363464,40.8882413],[-74.0361058,40.8881144],[-74.0359177,40.8880334],[-74.0357983,40.8879859],[-74.035541,40.8879288],[-74.0351642,40.8878528],[-74.0347422,40.8877537],[-74.0343503,40.8876662],[-74.034004,40.8875503],[-74.0337181,40.8874116],[-74.0335002,40.887279],[-74.0334344,40.8872269],[-74.0333802,40.887164],[-74.0333281,40.8870607],[-74.0333214,40.8869404],[-74.0333346,40.8866827],[-74.0334144,40.8863307],[-74.0335486,40.8860334],[-74.0336941,40.8857304],[-74.0338816,40.885356],[-74.0341548,40.8848817],[-74.0343455,40.8845875],[-74.0345475,40.8843005]]]}}
